{"type":"FeatureCollection","features":[{"type":"Feature","id":"Sikkim","properties":{"state":"Sikkim"},"geometry":{"type":"MultiPolygon","coordinates":[[[[88.8914,27.3161],[88.7604,27.2181],[88.7388,27.1756],[88.7562,27.1488],[88.6645,27.1734],[88.518,27.1762],[88.4477,27.1145],[88.3574,27.0851],[88.2331,27.1371],[88.1182,27.1385],[88.0009,27.248],[88.0241,27.4089],[88.0679,27.5674],[88.147,27.7492],[88.1503,27.8433],[88.1098,27.8706],[88.0989,27.9046],[88.109,27.933],[88.426,28.0117],[88.5779,28.0934],[88.6211,28.0918],[88.8037,28.0069],[88.8488,27.8687],[88.749,27.5219],[88.7649,27.4299],[88.8914,27.3161]]]]}},{"type":"Feature","id":"Telangana","properties":{"state":"Telangana"},"geometry":{"type":"MultiPolygon","coordinates":[[[[77.4465,15.953],[77.4837,16.0021],[77.4908,16.2616],[77.5332,16.361],[77.2937,16.4065],[77.2574,16.4494],[77.3709,16.5243],[77.432,16.5936],[77.4109,16.7206],[77.4334,16.9348],[77.4652,17.0426],[77.3744,17.2226],[77.5993,17.4869],[77.5826,17.5788],[77.4929,17.5776],[77.4115,17.6308],[77.4636,17.7134],[77.5254,17.7463],[77.5003,17.8123],[77.6198,17.9257],[77.6213,17.9868],[77.5629,18.0708],[77.5999,18.1148],[77.5512,18.3079],[77.5026,18.3816],[77.5923,18.5481],[77.6799,18.57],[77.7034,18.6691],[77.7811,18.7038],[77.8393,18.8096],[77.9121,18.8354],[77.752,19.0459],[77.8336,19.1214],[77.855,19.2284],[77.92,19.3317],[77.9924,19.3227],[78.0639,19.2641],[78.1679,19.2641],[78.1744,19.3747],[78.2401,19.4602],[78.3026,19.4828],[78.3334,19.6433],[78.3836,19.6845],[78.3218,19.8633],[78.3833,19.8662],[78.4777,19.7991],[78.5337,19.8247],[78.7117,19.7743],[78.78,19.7767],[78.8475,19.7245],[78.8725,19.6501],[79.0243,19.5415],[79.0589,19.5471],[79.1977,19.4619],[79.266,19.5896],[79.4204,19.5364],[79.5389,19.5338],[79.7354,19.6034],[79.7958,19.5941],[79.8649,19.509],[79.9311,19.4825],[79.9655,19.4019],[79.9306,19.2119],[79.9438,19.1692],[79.8618,19.0811],[79.9335,19.0531],[79.9603,18.8671],[80.0019,18.7856],[80.0905,18.6975],[80.2704,18.7137],[80.3199,18.6422],[80.4091,18.5889],[80.5026,18.5999],[80.5834,18.5414],[80.6962,18.4123],[80.7723,18.2327],[80.8524,18.1964],[80.9375,18.0863],[80.979,17.9639],[80.9856,17.8405],[81.0449,17.7761],[81.1477,17.8366],[81.2452,17.8037],[81.5784,17.7969],[81.759,17.9089],[81.7758,17.8332],[81.6286,17.7634],[81.5352,17.6377],[81.4695,17.4205],[81.4083,17.3706],[81.2143,17.3236],[81.1442,17.2495],[80.9905,17.2182],[80.8931,17.1556],[80.8295,17.046],[80.6697,17.0799],[80.5909,17.1398],[80.5018,17.108],[80.3843,16.976],[80.4743,16.9366],[80.5862,16.9339],[80.5061,16.7925],[80.351,16.8621],[80.2806,16.9974],[80.2205,17.0333],[80.0776,16.9726],[80.0024,16.871],[80.0733,16.8229],[80.043,16.7386],[79.9581,16.6304],[79.8823,16.7032],[79.752,16.7237],[79.7209,16.689],[79.5043,16.6419],[79.4063,16.5872],[79.2656,16.5696],[79.2135,16.4932],[79.2334,16.3305],[79.2148,16.2445],[79.1606,16.2193],[79.0217,16.2471],[78.8391,16.1248],[78.8394,16.0667],[78.7341,16.0303],[78.4998,16.0938],[78.4,16.0834],[78.256,16.0057],[78.2353,15.9505],[78.0875,15.833],[77.888,15.9191],[77.8499,15.8939],[77.6412,15.9007],[77.4465,15.953]]]]}},{"type":"Feature","id":"Ladakh","properties":{"state":"Ladakh"},"geometry":{"type":"MultiPolygon","coordinates":[[[[77.7994,35.4959],[77.8949,35.449],[78.0095,35.4902],[78.0427,35.4798],[78.0474,35.4494],[78.0092,35.3069],[78.0122,35.251],[78.0757,35.1349],[78.282,34.6539],[78.3269,34.6064],[78.6708,34.5182],[78.9364,34.352],[78.9701,34.3026],[78.9706,34.2282],[78.9318,34.1889],[78.7531,34.0877],[78.7318,34.0555],[78.7266,34.0134],[78.7837,33.8088],[78.8018,33.4997],[78.9485,33.3465],[79.0665,33.2504],[79.1125,33.2263],[79.3551,33.1698],[79.3762,33.1463],[79.3348,32.9755],[79.4991,32.7301],[79.4699,32.6434],[79.3846,32.5701],[79.2916,32.5066],[79.1699,32.4972],[79.1274,32.4758],[79.067,32.3882],[78.919,32.3582],[78.7712,32.4681],[78.7367,32.5584],[78.7009,32.597],[78.4126,32.5577],[78.3903,32.5273],[78.2704,32.5042],[78.3041,32.5962],[78.3747,32.6488],[78.3666,32.7652],[78.2539,32.6979],[78.1146,32.6677],[78.0089,32.6103],[77.9385,32.6953],[77.9289,32.7624],[77.8579,32.873],[77.7211,33.0126],[77.539,32.9184],[77.3487,32.8672],[77.1358,32.9267],[76.9561,33.0251],[76.7398,33.1974],[76.6466,33.3521],[76.488,33.5022],[76.2461,33.5741],[76.2358,33.7288],[76.1664,33.8732],[76.0244,33.9821],[75.8796,33.9637],[75.7417,34.0664],[75.6634,34.1992],[75.5846,34.2101],[75.4695,34.2801],[75.3745,34.371],[75.3475,34.5727],[75.6055,34.5028],[75.7092,34.5031],[75.8621,34.5603],[76.0411,34.6699],[76.1724,34.6677],[76.4568,34.7561],[76.5944,34.7359],[76.6963,34.7869],[76.7829,34.9002],[77.0009,34.992],[77.0486,35.1099],[77.7994,35.4959]]]]}},{"type":"Feature","id":"Chandigarh","properties":{"state":"Chandigarh"},"geometry":{"type":"MultiPolygon","coordinates":[[[[76.8146,30.7891],[76.8273,30.6807],[76.7756,30.6774],[76.7038,30.7814],[76.8146,30.7891]]]]}},{"type":"Feature","id":"Delhi","properties":{"state":"Delhi"},"geometry":{"type":"MultiPolygon","coordinates":[[[[77.3274,28.5197],[77.2697,28.5103],[77.1936,28.4326],[77.1005,28.4756],[77.0709,28.5286],[76.8727,28.5194],[76.8369,28.5872],[76.9473,28.6962],[76.9365,28.8147],[77.068,28.8821],[77.2008,28.8768],[77.2272,28.7836],[77.3069,28.7206],[77.3375,28.6262],[77.3274,28.5197]]]]}},{"type":"Feature","id":"Himachal Pradesh","properties":{"state":"Himachal Pradesh"},"geometry":{"type":"MultiPolygon","coordinates":[[[[78.3903,32.5273],[78.4413,32.3974],[78.4553,32.3003],[78.4959,32.2158],[78.7256,31.9838],[78.7355,31.9579],[78.687,31.8055],[78.6935,31.7404],[78.803,31.6181],[78.7551,31.5503],[78.7267,31.4718],[78.7586,31.4366],[78.7435,31.3238],[78.7578,31.3025],[78.7917,31.2936],[78.8694,31.315],[78.9933,31.1634],[78.8695,31.122],[78.7927,31.207],[78.5817,31.2311],[78.501,31.2196],[78.3687,31.29],[78.2842,31.2903],[78.0397,31.1722],[77.9411,31.1729],[77.806,31.0505],[77.7891,30.9306],[77.7058,30.7915],[77.813,30.5211],[77.5851,30.3829],[77.3034,30.4603],[77.1478,30.5387],[77.1503,30.664],[77.1151,30.7221],[77.0015,30.7773],[76.9057,30.8993],[76.7682,30.9076],[76.6452,30.9993],[76.5611,31.2767],[76.4335,31.3178],[76.3736,31.4192],[76.2754,31.3104],[76.1585,31.3386],[76.0705,31.5642],[75.9233,31.8063],[75.9643,31.8488],[75.8797,31.9724],[75.7065,32.0498],[75.6016,32.0689],[75.6394,32.1468],[75.6229,32.2585],[75.6927,32.2723],[75.9117,32.4314],[75.8474,32.5167],[75.9226,32.6173],[75.9093,32.7727],[75.8049,32.8986],[75.8264,32.9381],[75.9724,32.911],[76.1008,33.013],[76.2159,33.0511],[76.2943,33.1479],[76.3967,33.1977],[76.5586,33.2315],[76.6259,33.1893],[76.7398,33.1974],[76.9561,33.0251],[77.1358,32.9267],[77.3487,32.8672],[77.539,32.9184],[77.7211,33.0126],[77.8579,32.873],[77.9289,32.7624],[77.9385,32.6953],[78.0089,32.6103],[78.1146,32.6677],[78.2539,32.6979],[78.3666,32.7652],[78.3747,32.6488],[78.3041,32.5962],[78.2704,32.5042],[78.3903,32.5273]]]]}},{"type":"Feature","id":"Haryana","properties":{"state":"Haryana"},"geometry":{"type":"MultiPolygon","coordinates":[[[[77.2008,28.8768],[77.068,28.8821],[76.9365,28.8147],[76.9473,28.6962],[76.8369,28.5872],[76.8727,28.5194],[77.0709,28.5286],[77.1005,28.4756],[77.1936,28.4326],[77.2697,28.5103],[77.3274,28.5197],[77.497,28.3933],[77.4665,28.3152],[77.5289,28.2535],[77.4681,28.0468],[77.5265,27.9745],[77.4798,27.898],[77.4245,27.8908],[77.2807,27.8094],[77.0408,27.8073],[76.973,27.6793],[76.9009,27.7344],[76.9406,27.8521],[76.9209,28.0335],[76.9406,28.123],[76.8566,28.229],[76.6468,28.0855],[76.658,28.017],[76.5531,27.9712],[76.4535,28.1628],[76.368,28.1564],[76.2667,28.0775],[76.1633,28.0579],[76.1801,27.9096],[76.215,27.8415],[75.9999,27.8427],[75.9315,27.9181],[75.9928,28.0507],[75.9619,28.1395],[76.0325,28.1878],[76.0262,28.2622],[75.8871,28.4038],[75.6986,28.5206],[75.5936,28.6427],[75.486,28.9268],[75.515,28.9965],[75.4521,29.0239],[75.3929,29.106],[75.3915,29.2527],[75.3284,29.2962],[75.2497,29.2564],[75.1066,29.2382],[74.9696,29.2843],[74.9072,29.3785],[74.8214,29.4029],[74.7586,29.3643],[74.6128,29.3328],[74.5371,29.4414],[74.6021,29.4704],[74.5748,29.5897],[74.6027,29.7264],[74.5063,29.7368],[74.4665,29.7989],[74.547,29.8608],[74.5165,29.9472],[74.6507,29.9141],[74.7107,29.9684],[74.8234,29.985],[74.9035,29.9548],[74.9957,29.873],[75.0728,29.8911],[75.1052,29.8214],[75.1879,29.8347],[75.2382,29.7488],[75.1721,29.6882],[75.2346,29.5618],[75.2953,29.5749],[75.3116,29.6562],[75.4458,29.8062],[75.6044,29.7647],[75.7177,29.778],[75.786,29.831],[75.8867,29.7492],[75.9569,29.7386],[76.2256,29.8691],[76.1781,29.9547],[76.2667,30.1137],[76.4296,30.1404],[76.5314,30.084],[76.6248,30.1428],[76.6056,30.2744],[76.7143,30.3371],[76.7529,30.4305],[76.9049,30.3841],[76.8866,30.6338],[76.8273,30.6807],[76.8146,30.7891],[76.8328,30.8423],[76.7682,30.9076],[76.9057,30.8993],[77.0015,30.7773],[77.1151,30.7221],[77.1503,30.664],[77.1478,30.5387],[77.3034,30.4603],[77.5851,30.3829],[77.5701,30.2782],[77.2299,29.9766],[77.1804,29.8043],[77.0878,29.6585],[77.0647,29.5695],[77.1498,29.4034],[77.1307,29.2806],[77.1414,29.1303],[77.1957,28.9976],[77.2008,28.8768]]]]}},{"type":"Feature","id":"Jammu and Kashmir","properties":{"state":"Jammu and Kashmir"},"geometry":{"type":"MultiPolygon","coordinates":[[[[75.3475,34.5727],[75.3745,34.371],[75.4695,34.2801],[75.5846,34.2101],[75.6634,34.1992],[75.7417,34.0664],[75.8796,33.9637],[76.0244,33.9821],[76.1664,33.8732],[76.2358,33.7288],[76.2461,33.5741],[76.488,33.5022],[76.6466,33.3521],[76.7398,33.1974],[76.6259,33.1893],[76.5586,33.2315],[76.3967,33.1977],[76.2943,33.1479],[76.2159,33.0511],[76.1008,33.013],[75.9724,32.911],[75.8264,32.9381],[75.8049,32.8986],[75.9093,32.7727],[75.9226,32.6173],[75.8474,32.5167],[75.743,32.4644],[75.6826,32.3998],[75.612,32.3955],[75.5024,32.3006],[75.3904,32.3355],[75.2934,32.326],[75.2337,32.3721],[74.9873,32.4622],[74.7889,32.4578],[74.6858,32.4938],[74.6578,32.5189],[74.6434,32.6077],[74.6632,32.7577],[74.6324,32.7709],[74.5882,32.7532],[74.4833,32.771],[74.3546,32.7687],[74.3055,32.8104],[74.33,32.8608],[74.3036,32.9918],[74.1263,33.0754],[74.0038,33.1894],[73.9898,33.2212],[74.1178,33.3841],[74.15,33.507],[74.1313,33.5451],[74.004,33.6324],[73.9776,33.6678],[73.9765,33.7213],[74.001,33.7882],[74.0784,33.8387],[74.2156,33.8866],[74.2509,33.9461],[74.2465,33.9902],[73.9499,34.0188],[73.9041,34.0757],[73.9039,34.108],[73.9794,34.1913],[73.9724,34.2366],[73.9246,34.2878],[73.8099,34.3253],[73.7945,34.3782],[73.9612,34.6535],[74.3004,34.7654],[74.9519,34.6459],[75.1875,34.639],[75.3475,34.5727]]]]}},{"type":"Feature","id":"Andhra Pradesh","properties":{"state":"Andhra Pradesh"},"geometry":{"type":"MultiPolygon","coordinates":[[[[80.2312,13.4676],[80.0976,13.4638],[79.962,13.4165],[79.9567,13.3658],[79.8163,13.2949],[79.7849,13.224],[79.6968,13.2358],[79.6679,13.2913],[79.5717,13.2841],[79.5442,13.3235],[79.4495,13.3311],[79.4202,13.22],[79.3149,13.132],[79.2508,13.1478],[79.1616,13.0449],[79.0776,13.0356],[78.9442,13.0934],[78.7362,13.061],[78.6447,12.992],[78.5826,12.7782],[78.4191,12.6326],[78.3528,12.6415],[78.2296,12.7599],[78.2859,12.8434],[78.4158,12.9482],[78.5165,13.0891],[78.5684,13.2748],[78.3809,13.3228],[78.3502,13.3761],[78.3747,13.5796],[78.1841,13.6015],[78.0682,13.6987],[78.0968,13.809],[78.0327,13.8847],[77.9206,13.8305],[77.8788,13.9166],[77.7349,13.8242],[77.5932,13.7671],[77.4995,13.7045],[77.4425,13.702],[77.384,13.8467],[77.2921,13.8484],[77.1522,13.9036],[77.1026,13.8497],[77.1332,13.7848],[77.0323,13.7462],[76.9585,13.7816],[77.0104,13.905],[76.9359,14.0109],[76.9426,14.0611],[76.873,14.1374],[76.9736,14.1561],[76.9953,14.0664],[77.1123,14.0051],[77.2893,14.0107],[77.3324,13.9082],[77.388,13.9629],[77.3279,14.0522],[77.3685,14.1634],[77.4678,14.1924],[77.461,14.2901],[77.3844,14.262],[77.2782,14.2956],[77.2568,14.334],[77.1113,14.3296],[77.0455,14.2317],[76.9082,14.2579],[76.8624,14.3472],[76.9316,14.4576],[76.83,14.4787],[76.7529,14.5656],[76.7619,14.7637],[76.7997,14.7948],[76.8222,14.921],[76.7195,14.9897],[76.7643,15.0941],[76.948,15.0216],[77.0804,15.0367],[77.1281,15.1323],[77.1049,15.3082],[77.0259,15.3515],[76.9997,15.6138],[77.0849,15.6673],[77.0253,15.7813],[77.0341,15.8737],[77.1437,15.9607],[77.2264,15.9764],[77.4465,15.953],[77.6412,15.9007],[77.8499,15.8939],[77.888,15.9191],[78.0875,15.833],[78.2353,15.9505],[78.256,16.0057],[78.4,16.0834],[78.4998,16.0938],[78.7341,16.0303],[78.8394,16.0667],[78.8391,16.1248],[79.0217,16.2471],[79.1606,16.2193],[79.2148,16.2445],[79.2334,16.3305],[79.2135,16.4932],[79.2656,16.5696],[79.4063,16.5872],[79.5043,16.6419],[79.7209,16.689],[79.752,16.7237],[79.8823,16.7032],[79.9581,16.6304],[80.043,16.7386],[80.0733,16.8229],[80.0024,16.871],[80.0776,16.9726],[80.2205,17.0333],[80.2806,16.9974],[80.351,16.8621],[80.5061,16.7925],[80.5862,16.9339],[80.4743,16.9366],[80.3843,16.976],[80.5018,17.108],[80.5909,17.1398],[80.6697,17.0799],[80.8295,17.046],[80.8931,17.1556],[80.9905,17.2182],[81.1442,17.2495],[81.2143,17.3236],[81.4083,17.3706],[81.4695,17.4205],[81.5352,17.6377],[81.6286,17.7634],[81.7758,17.8332],[81.759,17.9089],[81.9236,18.0002],[82.0424,18.0433],[82.1319,18.0388],[82.2401,17.9929],[82.3299,18.044],[82.3528,18.1553],[82.3095,18.1948],[82.3608,18.2916],[82.3682,18.414],[82.4491,18.5221],[82.5027,18.5106],[82.5113,18.4222],[82.5974,18.3252],[82.5867,18.2444],[82.7814,18.3578],[82.7797,18.4167],[82.8784,18.4091],[82.9041,18.3553],[83.0392,18.3904],[83.0365,18.4695],[83.0835,18.5253],[83.0281,18.6409],[83.1265,18.7582],[83.2017,18.7416],[83.3942,18.8694],[83.3268,18.9297],[83.3414,19.0046],[83.4237,18.9643],[83.4901,19.0516],[83.5726,19.0699],[83.6128,19.1298],[83.7064,19.0014],[83.8018,19.0],[83.8542,18.86],[83.9024,18.8056],[84.0714,18.8179],[84.1531,18.7877],[84.3178,18.8092],[84.4626,18.9463],[84.5252,19.033],[84.6415,19.1005],[84.6945,19.1606],[84.7696,19.1205],[84.7498,19.0501],[84.6908,18.9647],[84.6094,18.8843],[84.4628,18.6897],[84.1817,18.4006],[84.1041,18.2927],[83.6543,18.0699],[83.5723,18.0036],[83.388,17.7867],[83.1983,17.609],[82.9769,17.4618],[82.5932,17.2739],[82.3596,17.0962],[82.2865,16.9781],[82.2819,16.9361],[82.35,16.8252],[82.3598,16.7828],[82.3271,16.6644],[82.2588,16.5599],[82.1415,16.4854],[81.7619,16.3295],[81.4019,16.3652],[81.2861,16.3371],[81.2386,16.264],[81.1321,15.9618],[81.0301,15.8814],[80.9787,15.7584],[80.9178,15.7597],[80.8647,15.7822],[80.826,15.7659],[80.7818,15.8673],[80.6466,15.895],[80.3849,15.7928],[80.2935,15.7107],[80.1011,15.3236],[80.0534,15.074],[80.0986,14.7982],[80.1654,14.5778],[80.1787,14.4783],[80.1701,14.3494],[80.1117,14.2122],[80.1437,14.0589],[80.2244,13.8582],[80.2458,13.6858],[80.2933,13.5287],[80.2768,13.5114],[80.2656,13.5213],[80.2334,13.6058],[80.1562,13.7138],[80.0621,13.6062],[80.1143,13.5287],[80.2312,13.4676]]]]}},{"type":"Feature","id":"Kerala","properties":{"state":"Kerala"},"geometry":{"type":"MultiPolygon","coordinates":[[[[74.894,12.7514],[75.1021,12.6789],[75.312,12.4695],[75.3893,12.2947],[75.4262,12.2918],[75.5366,12.1689],[75.6292,12.1021],[75.7611,12.0687],[75.7762,12.0098],[75.846,11.9511],[75.9606,11.9286],[76.0558,11.9637],[76.1155,11.8575],[76.1766,11.857],[76.3166,11.7469],[76.3893,11.744],[76.4159,11.6668],[76.3392,11.5915],[76.2408,11.604],[76.2563,11.4784],[76.4091,11.4368],[76.4954,11.3848],[76.5338,11.3131],[76.4663,11.2052],[76.6412,11.2086],[76.7192,11.1387],[76.6904,10.9334],[76.8198,10.876],[76.8897,10.78],[76.8755,10.6785],[76.8211,10.6332],[76.8086,10.4371],[76.8415,10.3107],[76.928,10.2356],[76.9863,10.2313],[77.0646,10.2963],[77.1915,10.3513],[77.277,10.2101],[77.2243,10.0578],[77.2602,9.9622],[77.2259,9.8589],[77.2354,9.7647],[77.1877,9.6128],[77.2632,9.5574],[77.3406,9.58],[77.3986,9.5],[77.2545,9.1221],[77.1649,9.001],[77.2026,8.8942],[77.2493,8.8591],[77.2354,8.7841],[77.1789,8.6952],[77.2038,8.612],[77.2788,8.5264],[77.1661,8.3369],[77.1097,8.2842],[76.9669,8.4073],[76.6173,8.8471],[76.5534,8.9028],[76.4829,9.0908],[76.4718,9.1608],[76.4031,9.2368],[76.3246,9.4521],[76.2424,9.9271],[76.2847,9.9099],[76.3431,9.8273],[76.3723,9.7074],[76.3756,9.5399],[76.4195,9.5205],[76.4588,9.5362],[76.3465,9.9221],[76.2487,10.018],[76.2228,10.0243],[76.1956,10.0861],[76.2015,10.2006],[76.1233,10.327],[75.9226,10.7841],[75.8446,11.0576],[75.7238,11.3618],[75.6461,11.4684],[75.5245,11.7031],[75.3146,11.9584],[75.1967,12.0575],[74.9455,12.5646],[74.894,12.7514]]]]}},{"type":"Feature","id":"Odisha","properties":{"state":"Odisha"},"geometry":{"type":"MultiPolygon","coordinates":[[[[87.4786,21.6081],[87.2007,21.5449],[87.1007,21.5008],[86.9541,21.3653],[86.8596,21.2367],[86.8423,21.1063],[86.8958,20.9656],[86.9394,20.7451],[86.9755,20.7001],[86.9245,20.6198],[86.8359,20.5343],[86.7625,20.4191],[86.7692,20.3559],[86.7504,20.3132],[86.4987,20.1716],[86.3766,20.0067],[86.2937,20.0538],[86.2452,20.053],[86.3119,19.9878],[86.3029,19.9447],[86.2795,19.9194],[85.575,19.6929],[85.4969,19.6969],[85.5111,19.7269],[85.5598,19.7535],[85.5551,19.8669],[85.46,19.8959],[85.2486,19.7577],[85.1628,19.6209],[85.1808,19.5949],[85.2285,19.6013],[85.3709,19.6789],[85.4369,19.6569],[85.4416,19.6266],[85.2256,19.5084],[84.7696,19.1205],[84.6945,19.1606],[84.6415,19.1005],[84.5252,19.033],[84.4626,18.9463],[84.3178,18.8092],[84.1531,18.7877],[84.0714,18.8179],[83.9024,18.8056],[83.8542,18.86],[83.8018,19.0],[83.7064,19.0014],[83.6128,19.1298],[83.5726,19.0699],[83.4901,19.0516],[83.4237,18.9643],[83.3414,19.0046],[83.3268,18.9297],[83.3942,18.8694],[83.2017,18.7416],[83.1265,18.7582],[83.0281,18.6409],[83.0835,18.5253],[83.0365,18.4695],[83.0392,18.3904],[82.9041,18.3553],[82.8784,18.4091],[82.7797,18.4167],[82.7814,18.3578],[82.5867,18.2444],[82.5974,18.3252],[82.5113,18.4222],[82.5027,18.5106],[82.4491,18.5221],[82.3682,18.414],[82.3608,18.2916],[82.3095,18.1948],[82.3528,18.1553],[82.3299,18.044],[82.2401,17.9929],[82.1319,18.0388],[82.0424,18.0433],[81.9236,18.0002],[81.5784,17.7969],[81.394,17.8067],[81.4442,17.8797],[81.5425,18.2625],[81.6438,18.2924],[81.7406,18.3579],[81.7924,18.4384],[81.9133,18.5449],[81.9037,18.6219],[81.969,18.6857],[82.1389,18.7473],[82.1691,18.8787],[82.2245,18.9219],[82.225,19.0152],[82.1454,19.2442],[82.1687,19.3866],[82.029,19.5179],[82.0291,19.7765],[81.8242,19.9133],[81.8678,20.0467],[81.9396,20.1047],[82.0461,20.0179],[82.0962,20.0506],[82.2284,19.9587],[82.2903,19.8361],[82.3814,19.8859],[82.6823,19.8227],[82.695,20.0005],[82.6112,19.9881],[82.4156,20.067],[82.4337,20.159],[82.4219,20.428],[82.3402,20.5563],[82.3667,20.6571],[82.342,20.8608],[82.4535,20.8469],[82.5621,20.9545],[82.6682,21.1555],[82.9646,21.1785],[83.0782,21.1146],[83.1983,21.1726],[83.2794,21.3588],[83.361,21.3368],[83.3812,21.3995],[83.3277,21.4992],[83.3519,21.5773],[83.444,21.7186],[83.4732,21.8072],[83.5571,21.8349],[83.5706,21.9231],[83.5153,21.9639],[83.5463,22.1016],[83.6054,22.196],[83.7331,22.2623],[83.8414,22.3486],[83.9458,22.3712],[83.9965,22.4405],[83.9702,22.5393],[84.067,22.4996],[84.1478,22.3868],[84.311,22.324],[84.4208,22.331],[84.5301,22.423],[84.7337,22.4273],[84.8008,22.4502],[84.9083,22.422],[85.0655,22.5032],[85.1004,22.394],[85.0878,22.2802],[84.9852,22.1128],[85.1092,22.1085],[85.232,22.0353],[85.3241,22.1267],[85.4252,22.1645],[85.5507,22.1076],[85.6791,22.0759],[85.7922,22.1291],[85.7847,22.0119],[85.8343,21.9861],[85.9162,22.0221],[85.9741,22.1046],[85.9646,22.2449],[85.9865,22.3936],[85.9388,22.5005],[86.0398,22.5567],[86.1025,22.5001],[86.268,22.4224],[86.366,22.3301],[86.4866,22.3369],[86.8339,22.1218],[86.9874,22.0666],[86.9937,21.9725],[87.0592,21.9072],[87.113,21.9714],[87.1907,21.9562],[87.2315,21.8481],[87.275,21.814],[87.4085,21.7861],[87.4786,21.6081]]]]}},{"type":"Feature","id":"Dadra and Nagar Haveli and Daman and Diu","properties":{"state":"Dadra and Nagar Haveli and Daman and Diu"},"geometry":{"type":"MultiPolygon","coordinates":[[[[73.1663,20.1149],[73.1609,20.0475],[72.9972,20.0398],[72.8967,20.2215],[73.0499,20.3303],[73.1122,20.2549],[73.0468,20.2213],[73.0418,20.1577],[73.1663,20.1149]]]]}},{"type":"Feature","id":"Karnataka","properties":{"state":"Karnataka"},"geometry":{"type":"MultiPolygon","coordinates":[[[[74.894,12.7514],[74.7705,13.0773],[74.6823,13.5069],[74.6709,13.6676],[74.6085,13.8497],[74.4985,14.0463],[74.467,14.2165],[74.3972,14.4074],[74.3822,14.4947],[74.097,14.8903],[74.2412,14.956],[74.2597,15.0977],[74.2928,15.1883],[74.2412,15.2378],[74.3042,15.2892],[74.2365,15.4725],[74.2578,15.5186],[74.2268,15.6298],[74.1006,15.6403],[74.1861,15.7657],[74.2235,15.7261],[74.3311,15.7619],[74.3545,15.8726],[74.4288,15.9938],[74.416,16.0964],[74.4696,16.1098],[74.4519,16.2539],[74.3662,16.2929],[74.2924,16.5284],[74.3532,16.5435],[74.43,16.6443],[74.5246,16.6238],[74.5574,16.5517],[74.6658,16.6062],[74.6849,16.7084],[74.8667,16.7762],[74.8446,16.852],[74.9223,16.8893],[74.96,16.9511],[75.0434,16.9528],[75.1665,16.8679],[75.2426,16.9021],[75.256,16.9592],[75.3708,16.9845],[75.4534,16.9641],[75.5538,17.0149],[75.6167,16.9747],[75.6468,17.0914],[75.6051,17.1581],[75.6221,17.2209],[75.5528,17.3659],[75.6131,17.4716],[75.7839,17.3748],[75.87,17.4161],[75.9365,17.3259],[76.0947,17.3778],[76.2104,17.3889],[76.3438,17.3519],[76.3222,17.6177],[76.3906,17.6368],[76.513,17.7728],[76.5927,17.7706],[76.676,17.7069],[76.7557,17.8258],[76.7409,17.8984],[76.8391,17.8842],[76.8851,17.9745],[76.8929,18.1443],[76.9495,18.18],[77.0877,18.1971],[77.1179,18.2538],[77.2311,18.3338],[77.2327,18.4107],[77.3019,18.4603],[77.3466,18.3515],[77.4615,18.2819],[77.5512,18.3079],[77.5999,18.1148],[77.5629,18.0708],[77.6213,17.9868],[77.6198,17.9257],[77.5003,17.8123],[77.5254,17.7463],[77.4636,17.7134],[77.4115,17.6308],[77.4929,17.5776],[77.5826,17.5788],[77.5993,17.4869],[77.3744,17.2226],[77.4652,17.0426],[77.4334,16.9348],[77.4109,16.7206],[77.432,16.5936],[77.3709,16.5243],[77.2574,16.4494],[77.2937,16.4065],[77.5332,16.361],[77.4908,16.2616],[77.4837,16.0021],[77.4465,15.953],[77.2264,15.9764],[77.1437,15.9607],[77.0341,15.8737],[77.0253,15.7813],[77.0849,15.6673],[76.9997,15.6138],[77.0259,15.3515],[77.1049,15.3082],[77.1281,15.1323],[77.0804,15.0367],[76.948,15.0216],[76.7643,15.0941],[76.7195,14.9897],[76.8222,14.921],[76.7997,14.7948],[76.7619,14.7637],[76.7529,14.5656],[76.83,14.4787],[76.9316,14.4576],[76.8624,14.3472],[76.9082,14.2579],[77.0455,14.2317],[77.1113,14.3296],[77.2568,14.334],[77.2782,14.2956],[77.3844,14.262],[77.461,14.2901],[77.4678,14.1924],[77.3685,14.1634],[77.3279,14.0522],[77.388,13.9629],[77.3324,13.9082],[77.2893,14.0107],[77.1123,14.0051],[76.9953,14.0664],[76.9736,14.1561],[76.873,14.1374],[76.9426,14.0611],[76.9359,14.0109],[77.0104,13.905],[76.9585,13.7816],[77.0323,13.7462],[77.1332,13.7848],[77.1026,13.8497],[77.1522,13.9036],[77.2921,13.8484],[77.384,13.8467],[77.4425,13.702],[77.4995,13.7045],[77.5932,13.7671],[77.7349,13.8242],[77.8788,13.9166],[77.9206,13.8305],[78.0327,13.8847],[78.0968,13.809],[78.0682,13.6987],[78.1841,13.6015],[78.3747,13.5796],[78.3502,13.3761],[78.3809,13.3228],[78.5684,13.2748],[78.5165,13.0891],[78.4158,12.9482],[78.2859,12.8434],[78.2296,12.7599],[78.0562,12.8459],[78.0021,12.8072],[77.895,12.8728],[77.8013,12.8566],[77.7653,12.7187],[77.6094,12.6728],[77.5687,12.5596],[77.6189,12.4666],[77.5608,12.3397],[77.4719,12.2742],[77.4921,12.2055],[77.6678,12.2039],[77.7687,12.12],[77.6708,11.9713],[77.4898,11.9261],[77.4339,11.8115],[77.3539,11.7837],[77.2592,11.8169],[77.1219,11.7925],[77.0826,11.7568],[76.9974,11.8259],[76.9077,11.8002],[76.8208,11.6256],[76.7508,11.6423],[76.6054,11.6312],[76.5322,11.7091],[76.4653,11.715],[76.4159,11.6668],[76.3893,11.744],[76.3166,11.7469],[76.1766,11.857],[76.1155,11.8575],[76.0558,11.9637],[75.9606,11.9286],[75.846,11.9511],[75.7762,12.0098],[75.7611,12.0687],[75.6292,12.1021],[75.5366,12.1689],[75.4262,12.2918],[75.3893,12.2947],[75.312,12.4695],[75.1021,12.6789],[74.894,12.7514]]]]}},{"type":"Feature","id":"Goa","properties":{"state":"Goa"},"geometry":{"type":"MultiPolygon","coordinates":[[[[73.6789,15.7112],[73.8076,15.7749],[73.9084,15.7212],[73.942,15.6344],[73.9917,15.6111],[74.1035,15.6446],[74.2268,15.6298],[74.2578,15.5186],[74.2365,15.4725],[74.3042,15.2892],[74.2412,15.2378],[74.2928,15.1883],[74.2597,15.0977],[74.2412,14.956],[74.097,14.8903],[74.0406,14.9494],[73.9492,15.0748],[73.8843,15.3064],[73.8008,15.397],[73.9319,15.397],[73.7718,15.573],[73.8328,15.6594],[73.7328,15.6569],[73.6789,15.7112]]]]}},{"type":"Feature","id":"Andaman and Nicobar","properties":{"state":"Andaman and Nicobar"},"geometry":{"type":"MultiPolygon","coordinates":[[[[93.016,13.3362],[93.0738,13.2521],[93.0661,13.2216],[93.0047,13.0894],[92.9514,13.0625],[92.8862,12.9423],[92.965,12.8505],[92.9902,12.5385],[92.9326,12.4531],[92.8637,12.436],[92.8795,12.2279],[92.7862,12.0347],[92.7477,11.9928],[92.764,11.9404],[92.7968,11.9175],[92.7976,11.8747],[92.767,11.7646],[92.7646,11.6392],[92.7008,11.5125],[92.6684,11.5387],[92.5756,11.7182],[92.5597,11.8334],[92.5339,11.8734],[92.5665,11.9305],[92.6075,11.9495],[92.6318,12.0139],[92.6406,12.1122],[92.6765,12.1924],[92.6947,12.2147],[92.7883,12.2258],[92.7776,12.3025],[92.7189,12.3573],[92.7207,12.5413],[92.732,12.6156],[92.7592,12.6691],[92.74,12.7796],[92.7531,12.8209],[92.807,12.8789],[92.8309,13.0026],[92.809,13.0396],[92.8602,13.2306],[92.8573,13.3581],[92.9246,13.4858],[93.0294,13.5438],[93.0623,13.5455],[93.0767,13.4007],[93.016,13.3362]]],[[[93.859,7.2068],[93.9296,6.9735],[93.89,6.8311],[93.8288,6.7487],[93.7093,7.0007],[93.658,7.0161],[93.6563,7.1362],[93.6842,7.1836],[93.8225,7.2366],[93.859,7.2068]]],[[[92.5104,10.8975],[92.554,10.7998],[92.5743,10.7042],[92.4727,10.5208],[92.3695,10.5474],[92.3771,10.6506],[92.3528,10.7511],[92.3707,10.7935],[92.4479,10.8655],[92.5104,10.8975]]],[[[93.3755,8.0179],[93.4337,7.9484],[93.4426,7.8778],[93.365,7.8766],[93.3094,7.964],[93.3345,8.0069],[93.3755,8.0179]]],[[[93.6547,7.3799],[93.6925,7.4106],[93.7336,7.3565],[93.6385,7.2619],[93.5973,7.3187],[93.6143,7.3581],[93.6547,7.3799]]],[[[92.7133,9.2049],[92.7621,9.2439],[92.7857,9.2405],[92.8093,9.1734],[92.7875,9.1367],[92.7436,9.131],[92.7166,9.1651],[92.7133,9.2049]]],[[[92.69,11.4634],[92.6932,11.3812],[92.6445,11.3613],[92.5957,11.3864],[92.6339,11.4268],[92.6402,11.5091],[92.69,11.4634]]],[[[93.0174,12.0368],[93.0621,11.8994],[92.9817,11.9595],[92.9554,12.0024],[93.0174,12.0368]]]]}},{"type":"Feature","id":"Assam","properties":{"state":"Assam"},"geometry":{"type":"MultiPolygon","coordinates":[[[[89.86,26.7136],[90.123,26.7546],[90.2061,26.8475],[90.3459,26.8903],[90.5599,26.7966],[90.7397,26.7717],[91.1339,26.8034],[91.2866,26.7899],[91.4268,26.8671],[91.4558,26.8669],[91.5175,26.8073],[91.6716,26.802],[91.8421,26.853],[91.9983,26.855],[92.0497,26.8748],[92.0728,26.9209],[92.2103,26.9123],[92.6262,27.0181],[92.6988,27.0659],[92.8148,27.0508],[93.0203,26.953],[93.375,26.9888],[93.4607,26.9472],[93.6947,27.0059],[93.8266,27.096],[93.8466,27.1989],[93.9825,27.3277],[94.2431,27.526],[94.2431,27.648],[94.3529,27.5931],[94.4746,27.5939],[95.3132,27.8958],[95.4084,27.8708],[95.5436,27.9021],[95.7168,27.9902],[95.9641,27.9933],[95.9007,27.8654],[95.7759,27.7173],[95.8043,27.6194],[95.8868,27.557],[95.8796,27.4626],[95.9783,27.4497],[96.0072,27.3651],[95.9037,27.2761],[95.7996,27.2859],[95.6438,27.2303],[95.5459,27.2739],[95.4934,27.25],[95.4238,27.1413],[95.2612,27.0489],[95.1764,27.0332],[95.0312,26.9335],[94.9171,26.9512],[94.7989,26.8144],[94.6905,26.741],[94.4866,26.6767],[94.3582,26.4984],[94.2072,26.4837],[94.1774,26.3724],[94.0077,26.1844],[93.9734,26.0404],[93.9892,25.9462],[93.9042,25.8568],[93.7521,25.9591],[93.7089,25.8701],[93.5808,25.7631],[93.5243,25.6893],[93.3359,25.538],[93.4585,25.3807],[93.4492,25.3021],[93.3943,25.235],[93.1892,24.8108],[93.124,24.8098],[93.0871,24.707],[93.0457,24.4445],[93.0184,24.3991],[92.8287,24.3773],[92.7463,24.4711],[92.7012,24.3619],[92.6309,24.2951],[92.6245,24.2385],[92.4895,24.1325],[92.4162,24.2395],[92.2985,24.2377],[92.2202,24.2643],[92.2578,24.396],[92.2217,24.5004],[92.1391,24.5453],[92.2267,24.771],[92.2283,24.8813],[92.2512,24.8951],[92.385,24.8488],[92.4432,24.8494],[92.4751,24.8685],[92.4854,24.9033],[92.4683,24.9441],[92.386,25.0057],[92.5649,25.1524],[92.8055,25.2277],[92.7896,25.3489],[92.5883,25.4988],[92.5934,25.5867],[92.3824,25.7643],[92.1673,25.6895],[92.1655,25.8092],[92.2147,25.9195],[92.184,25.993],[92.2615,26.0554],[92.1641,26.0884],[91.9225,26.0382],[91.8253,26.0893],[91.7519,26.0481],[91.7182,25.9677],[91.5823,26.0269],[91.4747,25.8962],[91.3606,25.8433],[91.251,25.7376],[91.2081,25.7362],[91.1789,25.8696],[91.0968,25.8399],[90.9745,25.9436],[90.7529,25.9621],[90.6443,25.9315],[90.6177,25.9698],[90.4845,26.0119],[90.1356,25.9598],[89.9742,25.8016],[89.9423,25.6915],[90.0021,25.5868],[89.8973,25.5414],[89.8755,25.4604],[89.8064,25.441],[89.8249,25.5601],[89.7996,25.8396],[89.8229,25.9414],[89.6878,26.1954],[89.7273,26.2062],[89.7815,26.3087],[89.8289,26.3279],[89.8885,26.5329],[89.86,26.7136]]]]}},{"type":"Feature","id":"Manipur","properties":{"state":"Manipur"},"geometry":{"type":"MultiPolygon","coordinates":[[[[94.6548,25.4448],[94.5799,25.3198],[94.553,25.2157],[94.5665,25.1915],[94.6753,25.1386],[94.7038,25.0978],[94.7076,25.0488],[94.5841,24.7672],[94.3994,24.5141],[94.293,24.3219],[94.1277,23.8765],[94.0748,23.8721],[93.6834,24.0065],[93.4938,23.9729],[93.4522,23.9874],[93.3556,24.0741],[93.3263,24.0642],[93.3121,24.0325],[93.2486,24.057],[93.1057,24.0449],[92.9955,24.0953],[93.0184,24.3991],[93.0457,24.4445],[93.0871,24.707],[93.124,24.8098],[93.1892,24.8108],[93.3943,25.235],[93.4492,25.3021],[93.6055,25.2058],[93.6791,25.3283],[93.8086,25.4461],[93.8032,25.5436],[94.0267,25.5538],[94.2094,25.4955],[94.3253,25.512],[94.5647,25.6842],[94.5528,25.4903],[94.6548,25.4448]]]]}},{"type":"Feature","id":"Nagaland","properties":{"state":"Nagaland"},"geometry":{"type":"MultiPolygon","coordinates":[[[[95.2464,26.6548],[95.1287,26.5973],[95.0598,26.474],[95.0509,26.3473],[95.069,26.1911],[95.1325,26.0413],[95.0152,25.9129],[94.992,25.7705],[94.9458,25.7002],[94.7859,25.5193],[94.6548,25.4448],[94.5528,25.4903],[94.5647,25.6842],[94.3253,25.512],[94.2094,25.4955],[94.0267,25.5538],[93.8032,25.5436],[93.8086,25.4461],[93.6791,25.3283],[93.6055,25.2058],[93.4492,25.3021],[93.4585,25.3807],[93.3359,25.538],[93.5243,25.6893],[93.5808,25.7631],[93.7089,25.8701],[93.7521,25.9591],[93.9042,25.8568],[93.9892,25.9462],[93.9734,26.0404],[94.0077,26.1844],[94.1774,26.3724],[94.2072,26.4837],[94.3582,26.4984],[94.4866,26.6767],[94.6905,26.741],[94.7989,26.8144],[94.9171,26.9512],[95.0312,26.9335],[95.1764,27.0332],[95.2254,26.9742],[95.2022,26.8667],[95.2353,26.7906],[95.2464,26.6548]]]]}},{"type":"Feature","id":"Meghalaya","properties":{"state":"Meghalaya"},"geometry":{"type":"MultiPolygon","coordinates":[[[[92.386,25.0057],[92.2046,25.1109],[92.0497,25.1695],[91.4797,25.1421],[91.2931,25.178],[90.4394,25.1577],[90.2504,25.185],[89.8333,25.2928],[89.8009,25.3362],[89.8064,25.441],[89.8755,25.4604],[89.8973,25.5414],[90.0021,25.5868],[89.9423,25.6915],[89.9742,25.8016],[90.1356,25.9598],[90.4845,26.0119],[90.6177,25.9698],[90.6443,25.9315],[90.7529,25.9621],[90.9745,25.9436],[91.0968,25.8399],[91.1789,25.8696],[91.2081,25.7362],[91.251,25.7376],[91.3606,25.8433],[91.4747,25.8962],[91.5823,26.0269],[91.7182,25.9677],[91.7519,26.0481],[91.8253,26.0893],[91.9225,26.0382],[92.1641,26.0884],[92.2615,26.0554],[92.184,25.993],[92.2147,25.9195],[92.1655,25.8092],[92.1673,25.6895],[92.3824,25.7643],[92.5934,25.5867],[92.5883,25.4988],[92.7896,25.3489],[92.8055,25.2277],[92.5649,25.1524],[92.386,25.0057]]]]}},{"type":"Feature","id":"Punjab","properties":{"state":"Punjab"},"geometry":{"type":"MultiPolygon","coordinates":[[[[75.2934,32.326],[75.3904,32.3355],[75.5024,32.3006],[75.612,32.3955],[75.6826,32.3998],[75.743,32.4644],[75.8474,32.5167],[75.9117,32.4314],[75.6927,32.2723],[75.6229,32.2585],[75.6394,32.1468],[75.6016,32.0689],[75.7065,32.0498],[75.8797,31.9724],[75.9643,31.8488],[75.9233,31.8063],[76.0705,31.5642],[76.1585,31.3386],[76.2754,31.3104],[76.3736,31.4192],[76.4335,31.3178],[76.5611,31.2767],[76.6452,30.9993],[76.8328,30.8423],[76.8146,30.7891],[76.7038,30.7814],[76.7756,30.6774],[76.8273,30.6807],[76.8866,30.6338],[76.9049,30.3841],[76.7529,30.4305],[76.7143,30.3371],[76.6056,30.2744],[76.6248,30.1428],[76.5314,30.084],[76.4296,30.1404],[76.2667,30.1137],[76.1781,29.9547],[76.2256,29.8691],[75.9569,29.7386],[75.8867,29.7492],[75.786,29.831],[75.7177,29.778],[75.6044,29.7647],[75.4458,29.8062],[75.3116,29.6562],[75.2953,29.5749],[75.2346,29.5618],[75.1721,29.6882],[75.2382,29.7488],[75.1879,29.8347],[75.1052,29.8214],[75.0728,29.8911],[74.9957,29.873],[74.9035,29.9548],[74.8234,29.985],[74.7107,29.9684],[74.6507,29.9141],[74.5165,29.9472],[73.9159,29.9799],[73.8985,30.0349],[73.9697,30.1374],[73.9246,30.2816],[73.8827,30.3522],[73.8993,30.4354],[74.009,30.5197],[74.2156,30.769],[74.3394,30.8936],[74.3804,30.8934],[74.6328,31.0346],[74.6103,31.1128],[74.5398,31.1327],[74.5177,31.1856],[74.5939,31.4654],[74.51,31.7129],[74.5555,31.8186],[74.6358,31.8897],[74.7394,31.9489],[75.0715,32.0893],[75.2541,32.1403],[75.3247,32.2153],[75.3335,32.2792],[75.2934,32.326]]]]}},{"type":"Feature","id":"Rajasthan","properties":{"state":"Rajasthan"},"geometry":{"type":"MultiPolygon","coordinates":[[[[71.0479,24.6877],[70.8778,25.063],[70.8005,25.2059],[70.7025,25.3311],[70.6521,25.4229],[70.6485,25.6669],[70.5696,25.706],[70.4485,25.6813],[70.3252,25.6857],[70.2646,25.7065],[70.1002,25.91],[70.0786,25.99],[70.0777,26.0719],[70.1326,26.2148],[70.1569,26.4714],[70.1477,26.5064],[70.1146,26.548],[70.0593,26.5787],[69.9114,26.5861],[69.7359,26.627],[69.507,26.7427],[69.4813,26.771],[69.47,26.8045],[69.537,27.1229],[69.6216,27.2281],[69.8963,27.4736],[70.1446,27.849],[70.2443,27.9341],[70.4037,28.0251],[70.4886,28.0231],[70.6291,27.9374],[70.6491,27.8353],[70.6916,27.769],[70.7374,27.729],[70.7979,27.7096],[70.8749,27.7144],[71.1847,27.8316],[71.2901,27.8553],[71.543,27.8699],[71.8703,27.9625],[71.8889,28.0475],[71.948,28.1773],[72.1285,28.3464],[72.1792,28.4218],[72.2919,28.6973],[72.3419,28.7519],[72.9033,29.0288],[73.1283,29.3639],[73.2311,29.5506],[73.3816,29.9343],[73.8092,30.0934],[73.9334,30.2221],[73.9697,30.1374],[73.8985,30.0349],[73.9159,29.9799],[74.5165,29.9472],[74.547,29.8608],[74.4665,29.7989],[74.5063,29.7368],[74.6027,29.7264],[74.5748,29.5897],[74.6021,29.4704],[74.5371,29.4414],[74.6128,29.3328],[74.7586,29.3643],[74.8214,29.4029],[74.9072,29.3785],[74.9696,29.2843],[75.1066,29.2382],[75.2497,29.2564],[75.3284,29.2962],[75.3915,29.2527],[75.3929,29.106],[75.4521,29.0239],[75.515,28.9965],[75.486,28.9268],[75.5936,28.6427],[75.6986,28.5206],[75.8871,28.4038],[76.0262,28.2622],[76.0325,28.1878],[75.9619,28.1395],[75.9928,28.0507],[75.9315,27.9181],[75.9999,27.8427],[76.215,27.8415],[76.1801,27.9096],[76.1633,28.0579],[76.2667,28.0775],[76.368,28.1564],[76.4535,28.1628],[76.5531,27.9712],[76.658,28.017],[76.6468,28.0855],[76.8566,28.229],[76.9406,28.123],[76.9209,28.0335],[76.9406,27.8521],[76.9009,27.7344],[76.973,27.6793],[77.0408,27.8073],[77.2807,27.8094],[77.3456,27.5419],[77.4598,27.3851],[77.6061,27.3236],[77.6573,27.2027],[77.5914,27.1307],[77.5134,27.1092],[77.6285,26.9732],[77.4608,26.9042],[77.5105,26.8333],[77.7046,26.9298],[77.9766,26.9044],[78.1069,26.9473],[78.2231,26.9371],[78.2001,26.8236],[78.1012,26.7951],[78.0794,26.6829],[78.0128,26.6956],[77.9028,26.664],[77.8315,26.5758],[77.7151,26.506],[77.6168,26.483],[77.4313,26.3737],[77.3234,26.352],[77.2097,26.242],[77.1247,26.2379],[77.0825,26.1853],[76.908,26.0986],[76.727,25.9163],[76.6518,25.9227],[76.546,25.8483],[76.4784,25.7198],[76.5514,25.4601],[76.6523,25.3792],[76.7802,25.332],[76.9135,25.3093],[77.0806,25.3532],[77.2016,25.3556],[77.2555,25.4335],[77.3586,25.4071],[77.363,25.2621],[77.3989,25.2122],[77.3413,25.114],[77.1874,25.1275],[76.9994,25.0877],[76.861,25.0338],[76.8832,24.897],[76.7806,24.8371],[76.8481,24.7597],[76.9668,24.7375],[77.0374,24.6703],[77.0352,24.5384],[76.9429,24.5002],[76.8805,24.5619],[76.8062,24.5558],[76.8146,24.3601],[76.8916,24.2409],[76.8703,24.1817],[76.7666,24.1603],[76.5725,24.2732],[76.5427,24.2152],[76.4561,24.265],[76.2303,24.2779],[76.1327,24.3294],[76.1166,24.134],[75.999,24.0511],[75.9979,23.9839],[75.8994,23.9183],[75.7765,23.8831],[75.6998,23.7932],[75.5971,23.8179],[75.5782,23.8757],[75.4903,23.9399],[75.5389,24.0414],[75.6218,23.9952],[75.73,24.0007],[75.805,24.1191],[75.7478,24.19],[75.7948,24.2516],[75.7344,24.424],[75.7922,24.4942],[75.8749,24.5143],[75.8694,24.5994],[75.7588,24.7774],[75.649,24.7383],[75.448,24.7031],[75.2037,24.725],[75.172,24.7625],[75.3179,24.9552],[75.2351,25.0402],[75.1333,25.04],[75.0844,24.8889],[74.9814,24.863],[74.8759,24.9194],[74.8153,24.9165],[74.8378,24.7971],[74.9743,24.7857],[74.9654,24.694],[74.8697,24.6656],[74.8065,24.7358],[74.7119,24.5239],[74.8468,24.4355],[74.7664,24.3587],[74.7593,24.2567],[74.87,24.2361],[74.8931,24.1345],[74.9682,24.0328],[74.9083,23.8967],[74.9066,23.7913],[74.939,23.6874],[74.823,23.5001],[74.6482,23.4306],[74.5695,23.3679],[74.5364,23.2509],[74.6584,23.2265],[74.7159,23.1792],[74.6119,23.1127],[74.4761,23.0624],[74.3235,23.0361],[74.2333,23.1559],[74.109,23.1911],[74.1058,23.2477],[73.9595,23.3588],[73.9045,23.3334],[73.8119,23.4346],[73.7107,23.415],[73.6188,23.4519],[73.6206,23.5826],[73.5108,23.6845],[73.3617,23.7842],[73.364,23.8891],[73.4239,23.9409],[73.3541,24.1047],[73.2456,24.0155],[73.0793,24.2043],[73.1372,24.3359],[73.095,24.5036],[72.9997,24.4933],[72.9587,24.3901],[72.8974,24.3606],[72.747,24.3807],[72.6676,24.4609],[72.5557,24.5067],[72.5009,24.4961],[72.2752,24.5684],[72.2617,24.6082],[72.0994,24.6566],[72.0509,24.7084],[71.9479,24.6626],[71.7509,24.6781],[71.6519,24.658],[71.5458,24.6881],[71.3784,24.6467],[71.2515,24.6368],[71.0479,24.6877]]]]}},{"type":"Feature","id":"Uttar Pradesh","properties":{"state":"Uttar Pradesh"},"geometry":{"type":"MultiPolygon","coordinates":[[[[80.0707,28.8302],[80.4186,28.612],[80.4792,28.6049],[80.5179,28.6652],[80.587,28.6496],[80.7508,28.5397],[81.1689,28.335],[81.239,28.2409],[81.3108,28.1764],[81.486,28.0622],[81.8526,27.8671],[81.9876,27.9137],[82.1119,27.865],[82.4514,27.6718],[82.6299,27.6871],[82.6774,27.6735],[82.7334,27.519],[83.064,27.4446],[83.2897,27.371],[83.3694,27.4103],[83.3839,27.4448],[83.4471,27.4654],[83.5516,27.4564],[83.8288,27.3778],[83.9424,27.2225],[83.9383,27.1644],[84.0234,27.06],[84.0706,26.9236],[84.149,26.8763],[84.2408,26.8742],[84.2464,26.757],[84.3063,26.7444],[84.383,26.6417],[84.0992,26.6496],[84.054,26.5648],[83.9201,26.5327],[83.9551,26.4539],[84.0261,26.4692],[84.1776,26.4043],[84.1872,26.2928],[83.9927,26.2411],[84.0649,26.1035],[84.1503,26.066],[84.2615,25.9313],[84.3743,25.9403],[84.4197,25.8896],[84.5316,25.8621],[84.6055,25.7998],[84.6007,25.747],[84.4867,25.7007],[84.3728,25.7651],[84.3147,25.7421],[84.3242,25.6589],[84.2389,25.648],[84.2129,25.728],[84.1434,25.7362],[83.9043,25.5295],[83.7749,25.445],[83.3841,25.2359],[83.3343,25.1726],[83.3233,25.068],[83.3599,25.009],[83.3602,24.8633],[83.5088,24.7621],[83.531,24.7036],[83.5231,24.5297],[83.4017,24.4983],[83.454,24.3616],[83.3371,24.1402],[83.2063,23.944],[83.0888,23.911],[82.9644,23.9139],[82.8009,23.9987],[82.6794,24.1668],[82.7329,24.2141],[82.767,24.386],[82.7341,24.4197],[82.7344,24.5516],[82.8084,24.5664],[82.7721,24.6683],[82.6922,24.7198],[82.6239,24.6919],[82.4271,24.7186],[82.4236,24.6475],[82.3027,24.6381],[82.319,24.702],[82.0332,24.8595],[81.8811,24.9215],[81.8172,25.0358],[81.5852,25.0796],[81.537,25.1998],[81.3605,25.157],[81.2432,25.1695],[81.239,25.0981],[81.1848,24.9729],[81.0981,24.9086],[80.9988,24.9657],[80.893,24.9841],[80.7787,24.9715],[80.8589,25.1876],[80.8061,25.2122],[80.7179,25.082],[80.6472,25.0701],[80.5795,25.1479],[80.5151,25.0407],[80.4584,25.0151],[80.2883,25.0162],[80.2653,25.0638],[80.422,25.1807],[80.395,25.2467],[80.3265,25.2823],[80.2836,25.4145],[80.1911,25.4133],[80.1245,25.351],[80.0153,25.3309],[79.8521,25.2478],[79.8633,25.1532],[79.6611,25.1481],[79.5416,25.1766],[79.4682,25.1038],[79.3391,25.1474],[79.4247,25.2572],[79.2945,25.2594],[79.269,25.1641],[79.109,25.195],[79.024,25.1746],[78.9834,25.2374],[78.885,25.2655],[78.9549,25.3857],[78.9191,25.5046],[78.8531,25.434],[78.7488,25.4261],[78.7275,25.3464],[78.5971,25.414],[78.5159,25.2662],[78.6098,25.1363],[78.6402,24.9641],[78.7321,24.8149],[78.7154,24.6851],[78.7504,24.6298],[78.8787,24.6132],[78.955,24.3925],[78.8258,24.2301],[78.7466,24.2794],[78.6559,24.2946],[78.4894,24.4108],[78.3855,24.3012],[78.3301,24.342],[78.3505,24.408],[78.2775,24.4531],[78.2288,24.5327],[78.2648,24.5835],[78.2613,24.6927],[78.1691,24.8655],[78.3365,25.023],[78.3663,25.186],[78.2619,25.4117],[78.33,25.4648],[78.3705,25.5527],[78.5584,25.5755],[78.7145,25.6259],[78.7536,25.6743],[78.7398,25.7898],[78.8083,25.8416],[78.9541,26.11],[78.9633,26.2781],[79.0608,26.3551],[79.0281,26.4976],[78.9744,26.5716],[78.9358,26.6944],[78.8424,26.7119],[78.6932,26.7979],[78.5635,26.7585],[78.3715,26.851],[78.2001,26.8236],[78.2231,26.9371],[78.1069,26.9473],[77.9766,26.9044],[77.7046,26.9298],[77.5105,26.8333],[77.4608,26.9042],[77.6285,26.9732],[77.5134,27.1092],[77.5914,27.1307],[77.6573,27.2027],[77.6061,27.3236],[77.4598,27.3851],[77.3456,27.5419],[77.2807,27.8094],[77.4245,27.8908],[77.4798,27.898],[77.5265,27.9745],[77.4681,28.0468],[77.5289,28.2535],[77.4665,28.3152],[77.497,28.3933],[77.3274,28.5197],[77.3375,28.6262],[77.3069,28.7206],[77.2272,28.7836],[77.2008,28.8768],[77.1957,28.9976],[77.1414,29.1303],[77.1307,29.2806],[77.1498,29.4034],[77.0647,29.5695],[77.0878,29.6585],[77.1804,29.8043],[77.2299,29.9766],[77.5701,30.2782],[77.5851,30.3829],[77.6615,30.3949],[77.7506,30.3256],[77.9289,30.2443],[77.835,30.1314],[77.7464,29.9773],[77.747,29.878],[77.7838,29.7418],[77.8315,29.6599],[77.9828,29.7188],[78.1072,29.6545],[78.1891,29.7067],[78.155,29.9254],[78.2283,29.9474],[78.3806,29.7616],[78.4787,29.722],[78.6431,29.5376],[78.9069,29.3884],[78.7215,29.284],[78.8677,29.2152],[78.9504,29.127],[79.0559,29.1518],[79.1706,29.0511],[79.2964,28.9716],[79.3712,28.9699],[79.4437,28.8496],[79.5262,28.8784],[79.6994,28.8504],[79.7433,28.8852],[79.841,28.8553],[79.8445,28.8049],[80.0006,28.7373],[80.0707,28.8302]]]]}},{"type":"Feature","id":"Uttarakhand","properties":{"state":"Uttarakhand"},"geometry":{"type":"MultiPolygon","coordinates":[[[[81.0102,30.1645],[80.9661,30.18],[80.9077,30.1719],[80.8482,30.1398],[80.6841,29.9943],[80.5491,29.8998],[80.4018,29.7303],[80.2549,29.4233],[80.256,29.318],[80.233,29.1946],[80.1305,29.1004],[80.0516,28.8703],[80.0707,28.8302],[80.0006,28.7373],[79.8445,28.8049],[79.841,28.8553],[79.7433,28.8852],[79.6994,28.8504],[79.5262,28.8784],[79.4437,28.8496],[79.3712,28.9699],[79.2964,28.9716],[79.1706,29.0511],[79.0559,29.1518],[78.9504,29.127],[78.8677,29.2152],[78.7215,29.284],[78.9069,29.3884],[78.6431,29.5376],[78.4787,29.722],[78.3806,29.7616],[78.2283,29.9474],[78.155,29.9254],[78.1891,29.7067],[78.1072,29.6545],[77.9828,29.7188],[77.8315,29.6599],[77.7838,29.7418],[77.747,29.878],[77.7464,29.9773],[77.835,30.1314],[77.9289,30.2443],[77.7506,30.3256],[77.6615,30.3949],[77.5851,30.3829],[77.813,30.5211],[77.7058,30.7915],[77.7891,30.9306],[77.806,31.0505],[77.9411,31.1729],[78.0397,31.1722],[78.2842,31.2903],[78.3687,31.29],[78.501,31.2196],[78.5817,31.2311],[78.7927,31.207],[78.8695,31.122],[78.9933,31.1634],[78.8694,31.315],[78.8995,31.3314],[78.9739,31.3286],[79.0111,31.4141],[79.0438,31.4262],[79.1071,31.4027],[79.3388,31.1057],[79.4932,30.9937],[79.5655,30.9491],[79.7946,30.9683],[80.0815,30.7819],[80.1495,30.7899],[80.1943,30.7592],[80.2071,30.6837],[80.1912,30.5684],[80.261,30.5613],[80.6821,30.4148],[80.7468,30.3604],[80.9855,30.2371],[81.0102,30.1645]]]]}},{"type":"Feature","id":"Jharkhand","properties":{"state":"Jharkhand"},"geometry":{"type":"MultiPolygon","coordinates":[[[[83.9702,22.5393],[83.9962,22.5927],[84.191,22.7009],[84.2283,22.7831],[84.3522,22.8856],[84.2917,22.9972],[84.115,22.9989],[84.0891,23.0848],[84.0289,23.1461],[84.0386,23.3094],[84.0154,23.3826],[83.9469,23.37],[83.9522,23.4749],[84.0145,23.554],[83.9912,23.6318],[83.9064,23.5647],[83.7809,23.5865],[83.7208,23.6762],[83.7353,23.7383],[83.6966,23.8187],[83.5568,23.9358],[83.5218,24.0659],[83.4423,24.1218],[83.3371,24.1402],[83.454,24.3616],[83.4017,24.4983],[83.5231,24.5297],[83.6959,24.5063],[83.7879,24.5373],[83.9184,24.5438],[84.0439,24.6239],[84.0956,24.5041],[84.3054,24.5308],[84.3119,24.4511],[84.472,24.3074],[84.5192,24.3075],[84.5883,24.3944],[84.7985,24.4966],[84.889,24.3728],[84.9615,24.3484],[85.2806,24.4873],[85.3914,24.5095],[85.5264,24.5016],[85.5784,24.5578],[85.6624,24.5689],[85.6473,24.6486],[85.746,24.77],[85.8309,24.7709],[85.9116,24.6985],[86.0329,24.7124],[86.0977,24.6905],[86.1549,24.5561],[86.2905,24.5516],[86.2764,24.4348],[86.4387,24.3404],[86.4944,24.4798],[86.5857,24.5614],[86.7023,24.5478],[86.7554,24.5881],[86.8899,24.5316],[86.9255,24.6136],[87.05,24.597],[87.0775,24.7453],[87.1192,24.8511],[87.1173,24.9709],[87.1855,25.062],[87.2659,25.0722],[87.2919,25.1743],[87.4067,25.181],[87.5235,25.3238],[87.5987,25.2667],[87.7262,25.2516],[87.7837,25.2141],[87.781,25.0899],[87.8441,25.0415],[87.8775,24.9389],[87.8533,24.7584],[87.8954,24.6703],[87.8773,24.5887],[87.7908,24.5625],[87.8005,24.5008],[87.7206,24.3178],[87.6315,24.2694],[87.6616,24.1862],[87.5721,24.1176],[87.4869,24.1241],[87.4887,24.0469],[87.3381,24.0018],[87.3016,24.0569],[87.2412,23.8508],[87.1663,23.8102],[87.0797,23.8152],[86.8772,23.9131],[86.8097,23.8181],[86.7998,23.7255],[86.6461,23.6969],[86.4585,23.6386],[86.3484,23.5679],[86.3365,23.5084],[86.2143,23.4492],[86.1215,23.5009],[86.1345,23.5589],[86.0564,23.6025],[85.9964,23.5115],[85.8289,23.4831],[85.8948,23.4165],[85.8298,23.2608],[85.8884,23.1631],[86.0202,23.1526],[86.1425,23.0283],[86.4505,23.0042],[86.4148,22.9435],[86.3991,22.785],[86.5869,22.6807],[86.6114,22.6043],[86.7494,22.5448],[86.7181,22.4694],[86.7899,22.4156],[86.7803,22.2867],[86.6865,22.218],[86.4866,22.3369],[86.366,22.3301],[86.268,22.4224],[86.1025,22.5001],[86.0398,22.5567],[85.9388,22.5005],[85.9865,22.3936],[85.9646,22.2449],[85.9741,22.1046],[85.9162,22.0221],[85.8343,21.9861],[85.7847,22.0119],[85.7922,22.1291],[85.6791,22.0759],[85.5507,22.1076],[85.4252,22.1645],[85.3241,22.1267],[85.232,22.0353],[85.1092,22.1085],[84.9852,22.1128],[85.0878,22.2802],[85.1004,22.394],[85.0655,22.5032],[84.9083,22.422],[84.8008,22.4502],[84.7337,22.4273],[84.5301,22.423],[84.4208,22.331],[84.311,22.324],[84.1478,22.3868],[84.067,22.4996],[83.9702,22.5393]]]]}},{"type":"Feature","id":"West Bengal","properties":{"state":"West Bengal"},"geometry":{"type":"MultiPolygon","coordinates":[[[[88.7562,27.1488],[88.8352,27.0656],[88.8577,26.9615],[89.1482,26.8161],[89.3321,26.8486],[89.5861,26.7789],[89.6092,26.7622],[89.61,26.7195],[89.7639,26.7015],[89.86,26.7136],[89.8885,26.5329],[89.8289,26.3279],[89.7815,26.3087],[89.7273,26.2062],[89.6878,26.1954],[89.6709,26.2138],[89.6191,26.2157],[89.5857,26.1861],[89.5728,26.1323],[89.5914,26.0724],[89.5499,26.0053],[89.4669,25.9835],[89.2892,26.0376],[89.1864,26.106],[89.1083,26.2022],[89.102,26.3083],[89.0668,26.3769],[89.0186,26.4103],[88.9519,26.4121],[88.9241,26.3751],[88.9815,26.2861],[88.9704,26.2509],[88.828,26.2522],[88.6828,26.2917],[88.6806,26.353],[88.6202,26.4307],[88.5182,26.5178],[88.4181,26.5715],[88.3699,26.5641],[88.3459,26.5048],[88.3514,26.4826],[88.4368,26.4371],[88.4404,26.3695],[88.1507,26.0871],[88.0846,25.8882],[88.1066,25.8411],[88.1474,25.8114],[88.2529,25.7898],[88.3631,25.6982],[88.4523,25.5744],[88.5024,25.537],[88.5935,25.4953],[88.7692,25.4905],[88.7954,25.4563],[88.8203,25.3655],[88.9442,25.2908],[88.9517,25.2593],[88.8901,25.1944],[88.8173,25.1762],[88.4563,25.1884],[88.3729,24.9615],[88.3133,24.8818],[88.1889,24.9206],[88.1498,24.9147],[88.0451,24.713],[88.0234,24.6279],[88.1455,24.4858],[88.225,24.4606],[88.2871,24.4797],[88.3375,24.4539],[88.397,24.3893],[88.4986,24.3466],[88.6423,24.326],[88.7235,24.2749],[88.7336,24.2309],[88.6998,24.0025],[88.5673,23.6744],[88.6164,23.5728],[88.7409,23.4366],[88.704,23.2928],[88.7244,23.255],[88.897,23.2104],[88.9281,23.1866],[88.8506,23.0405],[88.8997,22.8435],[88.927,22.6711],[88.9207,22.632],[89.0499,22.2746],[89.0514,22.0932],[89.0279,21.9372],[88.9493,21.9379],[89.0196,21.8336],[89.0517,21.6541],[88.9671,21.6414],[88.9074,21.6531],[88.8575,21.7447],[88.8344,21.6614],[88.745,21.5844],[88.6947,21.6624],[88.6912,21.7335],[88.7402,22.0054],[88.7083,22.0562],[88.6596,22.0669],[88.6416,22.122],[88.5668,21.8321],[88.5998,21.7138],[88.5847,21.6597],[88.446,21.6143],[88.3055,21.7233],[88.2875,21.7582],[88.2537,21.6223],[88.1221,21.6358],[88.0568,21.6941],[88.1811,22.0329],[88.1963,22.1396],[87.9944,22.2657],[87.9414,22.3743],[87.9616,22.255],[88.1593,22.1217],[88.0508,22.0011],[87.9484,21.8254],[87.8237,21.7273],[87.6782,21.6535],[87.4786,21.6081],[87.4085,21.7861],[87.275,21.814],[87.2315,21.8481],[87.1907,21.9562],[87.113,21.9714],[87.0592,21.9072],[86.9937,21.9725],[86.9874,22.0666],[86.8339,22.1218],[86.6865,22.218],[86.7803,22.2867],[86.7899,22.4156],[86.7181,22.4694],[86.7494,22.5448],[86.6114,22.6043],[86.5869,22.6807],[86.3991,22.785],[86.4148,22.9435],[86.4505,23.0042],[86.1425,23.0283],[86.0202,23.1526],[85.8884,23.1631],[85.8298,23.2608],[85.8948,23.4165],[85.8289,23.4831],[85.9964,23.5115],[86.0564,23.6025],[86.1345,23.5589],[86.1215,23.5009],[86.2143,23.4492],[86.3365,23.5084],[86.3484,23.5679],[86.4585,23.6386],[86.6461,23.6969],[86.7998,23.7255],[86.8097,23.8181],[86.8772,23.9131],[87.0797,23.8152],[87.1663,23.8102],[87.2412,23.8508],[87.3016,24.0569],[87.3381,24.0018],[87.4887,24.0469],[87.4869,24.1241],[87.5721,24.1176],[87.6616,24.1862],[87.6315,24.2694],[87.7206,24.3178],[87.8005,24.5008],[87.7908,24.5625],[87.8773,24.5887],[87.8954,24.6703],[87.8533,24.7584],[87.8775,24.9389],[87.8441,25.0415],[87.781,25.0899],[87.7837,25.2141],[87.8381,25.2778],[87.768,25.4363],[87.9558,25.5341],[88.0431,25.5471],[88.0464,25.6689],[87.9105,25.7651],[87.8054,25.8737],[87.8314,26.0106],[87.9794,26.1458],[88.0798,26.1928],[88.1805,26.2855],[88.2972,26.3362],[88.2823,26.4284],[88.195,26.5015],[88.0936,26.5368],[88.1616,26.7248],[88.1572,26.8073],[88.111,26.9285],[87.9932,27.0861],[87.9844,27.134],[88.0009,27.248],[88.1182,27.1385],[88.2331,27.1371],[88.3574,27.0851],[88.4477,27.1145],[88.518,27.1762],[88.6645,27.1734],[88.7562,27.1488]]]]}},{"type":"Feature","id":"Bihar","properties":{"state":"Bihar"},"geometry":{"type":"MultiPolygon","coordinates":[[[[83.8288,27.3778],[83.8972,27.4351],[84.0248,27.4617],[84.0911,27.4913],[84.2298,27.4278],[84.6102,27.2987],[84.6548,27.2037],[84.6538,27.0917],[84.6854,27.041],[85.0201,26.8785],[85.1254,26.861],[85.1515,26.8466],[85.1741,26.7816],[85.2402,26.7504],[85.293,26.741],[85.5685,26.8398],[85.6484,26.829],[85.6999,26.7816],[85.7074,26.7127],[85.7373,26.6397],[85.7946,26.6042],[85.8557,26.6002],[86.0073,26.6494],[86.1294,26.6117],[86.3661,26.5744],[86.7014,26.4351],[86.7625,26.4419],[87.0164,26.5554],[87.0379,26.5416],[87.0895,26.4332],[87.2874,26.3603],[87.4136,26.423],[87.6333,26.3991],[87.8492,26.4369],[87.9951,26.3824],[88.0549,26.43],[88.0936,26.5368],[88.195,26.5015],[88.2823,26.4284],[88.2972,26.3362],[88.1805,26.2855],[88.0798,26.1928],[87.9794,26.1458],[87.8314,26.0106],[87.8054,25.8737],[87.9105,25.7651],[88.0464,25.6689],[88.0431,25.5471],[87.9558,25.5341],[87.768,25.4363],[87.8381,25.2778],[87.7837,25.2141],[87.7262,25.2516],[87.5987,25.2667],[87.5235,25.3238],[87.4067,25.181],[87.2919,25.1743],[87.2659,25.0722],[87.1855,25.062],[87.1173,24.9709],[87.1192,24.8511],[87.0775,24.7453],[87.05,24.597],[86.9255,24.6136],[86.8899,24.5316],[86.7554,24.5881],[86.7023,24.5478],[86.5857,24.5614],[86.4944,24.4798],[86.4387,24.3404],[86.2764,24.4348],[86.2905,24.5516],[86.1549,24.5561],[86.0977,24.6905],[86.0329,24.7124],[85.9116,24.6985],[85.8309,24.7709],[85.746,24.77],[85.6473,24.6486],[85.6624,24.5689],[85.5784,24.5578],[85.5264,24.5016],[85.3914,24.5095],[85.2806,24.4873],[84.9615,24.3484],[84.889,24.3728],[84.7985,24.4966],[84.5883,24.3944],[84.5192,24.3075],[84.472,24.3074],[84.3119,24.4511],[84.3054,24.5308],[84.0956,24.5041],[84.0439,24.6239],[83.9184,24.5438],[83.7879,24.5373],[83.6959,24.5063],[83.5231,24.5297],[83.531,24.7036],[83.5088,24.7621],[83.3602,24.8633],[83.3599,25.009],[83.3233,25.068],[83.3343,25.1726],[83.3841,25.2359],[83.7749,25.445],[83.9043,25.5295],[84.1434,25.7362],[84.2129,25.728],[84.2389,25.648],[84.3242,25.6589],[84.3147,25.7421],[84.3728,25.7651],[84.4867,25.7007],[84.6007,25.747],[84.6055,25.7998],[84.5316,25.8621],[84.4197,25.8896],[84.3743,25.9403],[84.2615,25.9313],[84.1503,26.066],[84.0649,26.1035],[83.9927,26.2411],[84.1872,26.2928],[84.1776,26.4043],[84.0261,26.4692],[83.9551,26.4539],[83.9201,26.5327],[84.054,26.5648],[84.0992,26.6496],[84.383,26.6417],[84.3063,26.7444],[84.2464,26.757],[84.2408,26.8742],[84.149,26.8763],[84.0706,26.9236],[84.0234,27.06],[83.9383,27.1644],[83.9424,27.2225],[83.8288,27.3778]]]]}},{"type":"Feature","id":"Chhattisgarh","properties":{"state":"Chhattisgarh"},"geometry":{"type":"MultiPolygon","coordinates":[[[[80.2704,18.7137],[80.2748,18.7769],[80.3442,18.8507],[80.2718,18.9794],[80.3666,19.1174],[80.3971,19.2342],[80.576,19.392],[80.6174,19.3186],[80.7167,19.2627],[80.8322,19.3454],[80.8939,19.4844],[80.831,19.5471],[80.7129,19.5926],[80.6757,19.6766],[80.5656,19.7398],[80.5378,19.8109],[80.4251,19.8928],[80.5311,19.9207],[80.5572,20.0483],[80.5306,20.1349],[80.4263,20.1462],[80.4244,20.2341],[80.6224,20.3259],[80.6224,20.6009],[80.503,20.6333],[80.573,20.6976],[80.5521,20.9193],[80.4813,20.932],[80.4353,20.9992],[80.4845,21.1677],[80.6256,21.2427],[80.7214,21.4732],[80.7305,21.7143],[80.8051,21.7743],[80.8379,21.8461],[80.8351,21.951],[80.919,22.0975],[80.9873,22.108],[81.0235,22.194],[81.1189,22.2946],[81.1225,22.4005],[81.178,22.4784],[81.2349,22.4445],[81.3726,22.4927],[81.4178,22.4375],[81.5396,22.52],[81.6423,22.5508],[81.6696,22.6093],[81.7664,22.664],[81.7885,22.8529],[81.9402,22.9458],[81.9461,23.043],[82.0708,23.1003],[82.1294,23.0965],[82.1897,23.2887],[82.0982,23.3717],[81.9914,23.4005],[81.9072,23.5052],[81.7446,23.5426],[81.6441,23.4821],[81.5914,23.5612],[81.6862,23.6903],[81.622,23.8338],[81.6819,23.8851],[81.7782,23.8019],[81.9369,23.8407],[82.0774,23.8014],[82.5317,23.7754],[82.6508,23.8448],[82.6577,23.8845],[82.7681,23.929],[82.8009,23.9987],[82.9644,23.9139],[83.0888,23.911],[83.2063,23.944],[83.3371,24.1402],[83.4423,24.1218],[83.5218,24.0659],[83.5568,23.9358],[83.6966,23.8187],[83.7353,23.7383],[83.7208,23.6762],[83.7809,23.5865],[83.9064,23.5647],[83.9912,23.6318],[84.0145,23.554],[83.9522,23.4749],[83.9469,23.37],[84.0154,23.3826],[84.0386,23.3094],[84.0289,23.1461],[84.0891,23.0848],[84.115,22.9989],[84.2917,22.9972],[84.3522,22.8856],[84.2283,22.7831],[84.191,22.7009],[83.9962,22.5927],[83.9702,22.5393],[83.9965,22.4405],[83.9458,22.3712],[83.8414,22.3486],[83.7331,22.2623],[83.6054,22.196],[83.5463,22.1016],[83.5153,21.9639],[83.5706,21.9231],[83.5571,21.8349],[83.4732,21.8072],[83.444,21.7186],[83.3519,21.5773],[83.3277,21.4992],[83.3812,21.3995],[83.361,21.3368],[83.2794,21.3588],[83.1983,21.1726],[83.0782,21.1146],[82.9646,21.1785],[82.6682,21.1555],[82.5621,20.9545],[82.4535,20.8469],[82.342,20.8608],[82.3667,20.6571],[82.3402,20.5563],[82.4219,20.428],[82.4337,20.159],[82.4156,20.067],[82.6112,19.9881],[82.695,20.0005],[82.6823,19.8227],[82.3814,19.8859],[82.2903,19.8361],[82.2284,19.9587],[82.0962,20.0506],[82.0461,20.0179],[81.9396,20.1047],[81.8678,20.0467],[81.8242,19.9133],[82.0291,19.7765],[82.029,19.5179],[82.1687,19.3866],[82.1454,19.2442],[82.225,19.0152],[82.2245,18.9219],[82.1691,18.8787],[82.1389,18.7473],[81.969,18.6857],[81.9037,18.6219],[81.9133,18.5449],[81.7924,18.4384],[81.7406,18.3579],[81.6438,18.2924],[81.5425,18.2625],[81.4442,17.8797],[81.394,17.8067],[81.2452,17.8037],[81.1477,17.8366],[81.0449,17.7761],[80.9856,17.8405],[80.979,17.9639],[80.9375,18.0863],[80.8524,18.1964],[80.7723,18.2327],[80.6962,18.4123],[80.5834,18.5414],[80.5026,18.5999],[80.4091,18.5889],[80.3199,18.6422],[80.2704,18.7137]]]]}},{"type":"Feature","id":"Madhya Pradesh","properties":{"state":"Madhya Pradesh"},"geometry":{"type":"MultiPolygon","coordinates":[[[[80.679,21.3512],[80.6256,21.3265],[80.4176,21.4468],[80.3102,21.5802],[80.1867,21.6395],[80.0053,21.5483],[79.8403,21.5343],[79.7984,21.5878],[79.6505,21.5816],[79.5516,21.55],[79.5331,21.6193],[79.4131,21.6898],[79.2401,21.7128],[79.2158,21.6546],[78.9219,21.5723],[78.9042,21.5093],[78.696,21.4748],[78.5137,21.5266],[78.4279,21.5085],[78.4133,21.6063],[78.1927,21.5511],[78.0292,21.4377],[77.8715,21.3981],[77.7875,21.423],[77.7126,21.3803],[77.578,21.3845],[77.4818,21.4239],[77.4331,21.4988],[77.4568,21.5485],[77.5552,21.5425],[77.5518,21.6968],[77.4607,21.77],[77.333,21.7745],[77.219,21.7008],[77.1155,21.724],[77.0288,21.6936],[76.9174,21.6181],[76.7937,21.577],[76.7855,21.5017],[76.7295,21.413],[76.6334,21.341],[76.654,21.2513],[76.6141,21.2025],[76.4983,21.1804],[76.4366,21.1078],[76.2866,21.0748],[76.1868,21.0858],[76.1086,21.1531],[76.1429,21.1931],[76.0829,21.3681],[75.8778,21.3998],[75.814,21.3834],[75.5347,21.3718],[75.3119,21.3815],[75.1299,21.4377],[75.048,21.5541],[74.8941,21.612],[74.7081,21.6112],[74.5125,21.7269],[74.4856,21.946],[74.4077,22.023],[74.2844,21.9449],[74.2049,21.9251],[74.1288,21.9518],[74.1419,22.0628],[74.0715,22.1978],[74.0564,22.2942],[74.2243,22.3492],[74.2215,22.4094],[74.113,22.4107],[74.0257,22.4796],[74.0631,22.5209],[74.1612,22.5167],[74.2727,22.6097],[74.3764,22.651],[74.4581,22.8041],[74.4266,22.8716],[74.365,22.875],[74.3235,23.0361],[74.4761,23.0624],[74.6119,23.1127],[74.7159,23.1792],[74.6584,23.2265],[74.5364,23.2509],[74.5695,23.3679],[74.6482,23.4306],[74.823,23.5001],[74.939,23.6874],[74.9066,23.7913],[74.9083,23.8967],[74.9682,24.0328],[74.8931,24.1345],[74.87,24.2361],[74.7593,24.2567],[74.7664,24.3587],[74.8468,24.4355],[74.7119,24.5239],[74.8065,24.7358],[74.8697,24.6656],[74.9654,24.694],[74.9743,24.7857],[74.8378,24.7971],[74.8153,24.9165],[74.8759,24.9194],[74.9814,24.863],[75.0844,24.8889],[75.1333,25.04],[75.2351,25.0402],[75.3179,24.9552],[75.172,24.7625],[75.2037,24.725],[75.448,24.7031],[75.649,24.7383],[75.7588,24.7774],[75.8694,24.5994],[75.8749,24.5143],[75.7922,24.4942],[75.7344,24.424],[75.7948,24.2516],[75.7478,24.19],[75.805,24.1191],[75.73,24.0007],[75.6218,23.9952],[75.5389,24.0414],[75.4903,23.9399],[75.5782,23.8757],[75.5971,23.8179],[75.6998,23.7932],[75.7765,23.8831],[75.8994,23.9183],[75.9979,23.9839],[75.999,24.0511],[76.1166,24.134],[76.1327,24.3294],[76.2303,24.2779],[76.4561,24.265],[76.5427,24.2152],[76.5725,24.2732],[76.7666,24.1603],[76.8703,24.1817],[76.8916,24.2409],[76.8146,24.3601],[76.8062,24.5558],[76.8805,24.5619],[76.9429,24.5002],[77.0352,24.5384],[77.0374,24.6703],[76.9668,24.7375],[76.8481,24.7597],[76.7806,24.8371],[76.8832,24.897],[76.861,25.0338],[76.9994,25.0877],[77.1874,25.1275],[77.3413,25.114],[77.3989,25.2122],[77.363,25.2621],[77.3586,25.4071],[77.2555,25.4335],[77.2016,25.3556],[77.0806,25.3532],[76.9135,25.3093],[76.7802,25.332],[76.6523,25.3792],[76.5514,25.4601],[76.4784,25.7198],[76.546,25.8483],[76.6518,25.9227],[76.727,25.9163],[76.908,26.0986],[77.0825,26.1853],[77.1247,26.2379],[77.2097,26.242],[77.3234,26.352],[77.4313,26.3737],[77.6168,26.483],[77.7151,26.506],[77.8315,26.5758],[77.9028,26.664],[78.0128,26.6956],[78.0794,26.6829],[78.1012,26.7951],[78.3715,26.851],[78.5635,26.7585],[78.6932,26.7979],[78.8424,26.7119],[78.9358,26.6944],[78.9744,26.5716],[79.0281,26.4976],[79.0608,26.3551],[78.9633,26.2781],[78.9541,26.11],[78.8083,25.8416],[78.7398,25.7898],[78.7536,25.6743],[78.7145,25.6259],[78.5584,25.5755],[78.3705,25.5527],[78.33,25.4648],[78.2619,25.4117],[78.3663,25.186],[78.3365,25.023],[78.1691,24.8655],[78.2613,24.6927],[78.2648,24.5835],[78.2288,24.5327],[78.2775,24.4531],[78.3505,24.408],[78.3301,24.342],[78.3855,24.3012],[78.4894,24.4108],[78.6559,24.2946],[78.7466,24.2794],[78.8258,24.2301],[78.955,24.3925],[78.8787,24.6132],[78.7504,24.6298],[78.7154,24.6851],[78.7321,24.8149],[78.6402,24.9641],[78.6098,25.1363],[78.5159,25.2662],[78.5971,25.414],[78.7275,25.3464],[78.7488,25.4261],[78.8531,25.434],[78.9191,25.5046],[78.9549,25.3857],[78.885,25.2655],[78.9834,25.2374],[79.024,25.1746],[79.109,25.195],[79.269,25.1641],[79.2945,25.2594],[79.4247,25.2572],[79.3391,25.1474],[79.4682,25.1038],[79.5416,25.1766],[79.6611,25.1481],[79.8633,25.1532],[79.8521,25.2478],[80.0153,25.3309],[80.1245,25.351],[80.1911,25.4133],[80.2836,25.4145],[80.3265,25.2823],[80.395,25.2467],[80.422,25.1807],[80.2653,25.0638],[80.2883,25.0162],[80.4584,25.0151],[80.5151,25.0407],[80.5795,25.1479],[80.6472,25.0701],[80.7179,25.082],[80.8061,25.2122],[80.8589,25.1876],[80.7787,24.9715],[80.893,24.9841],[80.9988,24.9657],[81.0981,24.9086],[81.1848,24.9729],[81.239,25.0981],[81.2432,25.1695],[81.3605,25.157],[81.537,25.1998],[81.5852,25.0796],[81.8172,25.0358],[81.8811,24.9215],[82.0332,24.8595],[82.319,24.702],[82.3027,24.6381],[82.4236,24.6475],[82.4271,24.7186],[82.6239,24.6919],[82.6922,24.7198],[82.7721,24.6683],[82.8084,24.5664],[82.7344,24.5516],[82.7341,24.4197],[82.767,24.386],[82.7329,24.2141],[82.6794,24.1668],[82.8009,23.9987],[82.7681,23.929],[82.6577,23.8845],[82.6508,23.8448],[82.5317,23.7754],[82.0774,23.8014],[81.9369,23.8407],[81.7782,23.8019],[81.6819,23.8851],[81.622,23.8338],[81.6862,23.6903],[81.5914,23.5612],[81.6441,23.4821],[81.7446,23.5426],[81.9072,23.5052],[81.9914,23.4005],[82.0982,23.3717],[82.1897,23.2887],[82.1294,23.0965],[82.0708,23.1003],[81.9461,23.043],[81.9402,22.9458],[81.7885,22.8529],[81.7664,22.664],[81.6696,22.6093],[81.6423,22.5508],[81.5396,22.52],[81.4178,22.4375],[81.3726,22.4927],[81.2349,22.4445],[81.178,22.4784],[81.1225,22.4005],[81.1189,22.2946],[81.0235,22.194],[80.9873,22.108],[80.919,22.0975],[80.8351,21.951],[80.8379,21.8461],[80.8051,21.7743],[80.7305,21.7143],[80.7214,21.4732],[80.679,21.3512]]]]}},{"type":"Feature","id":"Puducherry","properties":{"state":"Puducherry"},"geometry":{"type":"MultiPolygon","coordinates":[[[[79.8494,10.9798],[79.8502,10.7688],[79.7674,10.8886],[79.7054,10.9104],[79.7375,10.9862],[79.8494,10.9798]]],[[[79.8485,11.9545],[79.8129,11.8324],[79.7271,11.8416],[79.686,11.9999],[79.7911,11.9168],[79.8485,11.9545]]]]}},{"type":"Feature","id":"Tamil Nadu","properties":{"state":"Tamil Nadu"},"geometry":{"type":"MultiPolygon","coordinates":[[[[79.8502,10.7688],[79.8382,10.3226],[79.6674,10.2997],[79.5316,10.3296],[79.3905,10.306],[79.3146,10.2567],[79.2536,10.1748],[79.2578,10.0352],[78.9963,9.6831],[78.9399,9.5658],[78.9191,9.4529],[78.9531,9.3938],[79.0199,9.3333],[79.2755,9.2846],[79.3563,9.2521],[79.4114,9.1924],[79.2129,9.256],[78.9796,9.2686],[78.4215,9.105],[78.2745,8.9902],[78.1925,8.8909],[78.136,8.6634],[78.1264,8.5113],[78.0602,8.3846],[77.7703,8.1898],[77.5872,8.1299],[77.5176,8.0783],[77.3015,8.1453],[77.1097,8.2842],[77.1661,8.3369],[77.2788,8.5264],[77.2038,8.612],[77.1789,8.6952],[77.2354,8.7841],[77.2493,8.8591],[77.2026,8.8942],[77.1649,9.001],[77.2545,9.1221],[77.3986,9.5],[77.3406,9.58],[77.2632,9.5574],[77.1877,9.6128],[77.2354,9.7647],[77.2259,9.8589],[77.2602,9.9622],[77.2243,10.0578],[77.277,10.2101],[77.1915,10.3513],[77.0646,10.2963],[76.9863,10.2313],[76.928,10.2356],[76.8415,10.3107],[76.8086,10.4371],[76.8211,10.6332],[76.8755,10.6785],[76.8897,10.78],[76.8198,10.876],[76.6904,10.9334],[76.7192,11.1387],[76.6412,11.2086],[76.4663,11.2052],[76.5338,11.3131],[76.4954,11.3848],[76.4091,11.4368],[76.2563,11.4784],[76.2408,11.604],[76.3392,11.5915],[76.4653,11.715],[76.5322,11.7091],[76.6054,11.6312],[76.7508,11.6423],[76.8208,11.6256],[76.9077,11.8002],[76.9974,11.8259],[77.0826,11.7568],[77.1219,11.7925],[77.2592,11.8169],[77.3539,11.7837],[77.4339,11.8115],[77.4898,11.9261],[77.6708,11.9713],[77.7687,12.12],[77.6678,12.2039],[77.4921,12.2055],[77.4719,12.2742],[77.5608,12.3397],[77.6189,12.4666],[77.5687,12.5596],[77.6094,12.6728],[77.7653,12.7187],[77.8013,12.8566],[77.895,12.8728],[78.0021,12.8072],[78.0562,12.8459],[78.2296,12.7599],[78.3528,12.6415],[78.4191,12.6326],[78.5826,12.7782],[78.6447,12.992],[78.7362,13.061],[78.9442,13.0934],[79.0776,13.0356],[79.1616,13.0449],[79.2508,13.1478],[79.3149,13.132],[79.4202,13.22],[79.4495,13.3311],[79.5442,13.3235],[79.5717,13.2841],[79.6679,13.2913],[79.6968,13.2358],[79.7849,13.224],[79.8163,13.2949],[79.9567,13.3658],[79.962,13.4165],[80.0976,13.4638],[80.2312,13.4676],[80.2903,13.4367],[80.3424,13.3613],[80.2291,12.6903],[80.1431,12.452],[79.9817,12.2354],[79.8485,11.9545],[79.7911,11.9168],[79.686,11.9999],[79.7271,11.8416],[79.8129,11.8324],[79.7541,11.5753],[79.7934,11.4467],[79.6932,11.3125],[79.799,11.3387],[79.8353,11.2688],[79.8486,11.1969],[79.8494,10.9798],[79.7375,10.9862],[79.7054,10.9104],[79.7674,10.8886],[79.8502,10.7688]]]]}},{"type":"Feature","id":"Gujarat","properties":{"state":"Gujarat"},"geometry":{"type":"MultiPolygon","coordinates":[[[[71.0479,24.6877],[71.2515,24.6368],[71.3784,24.6467],[71.5458,24.6881],[71.6519,24.658],[71.7509,24.6781],[71.9479,24.6626],[72.0509,24.7084],[72.0994,24.6566],[72.2617,24.6082],[72.2752,24.5684],[72.5009,24.4961],[72.5557,24.5067],[72.6676,24.4609],[72.747,24.3807],[72.8974,24.3606],[72.9587,24.3901],[72.9997,24.4933],[73.095,24.5036],[73.1372,24.3359],[73.0793,24.2043],[73.2456,24.0155],[73.3541,24.1047],[73.4239,23.9409],[73.364,23.8891],[73.3617,23.7842],[73.5108,23.6845],[73.6206,23.5826],[73.6188,23.4519],[73.7107,23.415],[73.8119,23.4346],[73.9045,23.3334],[73.9595,23.3588],[74.1058,23.2477],[74.109,23.1911],[74.2333,23.1559],[74.3235,23.0361],[74.365,22.875],[74.4266,22.8716],[74.4581,22.8041],[74.3764,22.651],[74.2727,22.6097],[74.1612,22.5167],[74.0631,22.5209],[74.0257,22.4796],[74.113,22.4107],[74.2215,22.4094],[74.2243,22.3492],[74.0564,22.2942],[74.0715,22.1978],[74.1419,22.0628],[74.1288,21.9518],[74.061,21.9403],[73.9176,21.8669],[73.8094,21.8365],[73.8286,21.6509],[73.7516,21.611],[73.8208,21.5083],[73.9959,21.5553],[74.1916,21.5455],[74.2915,21.5139],[74.1087,21.4516],[74.0535,21.4657],[73.9602,21.3944],[73.9186,21.2916],[73.8001,21.2809],[73.7774,21.2166],[73.6952,21.1226],[73.8683,20.9748],[73.9029,20.8839],[73.909,20.7757],[73.811,20.6769],[73.7923,20.6062],[73.6998,20.5624],[73.4758,20.6787],[73.4042,20.6699],[73.4587,20.538],[73.3607,20.3694],[73.3941,20.2704],[73.3638,20.1783],[73.2718,20.1934],[73.2433,20.1386],[73.1663,20.1149],[73.0418,20.1577],[73.0468,20.2213],[73.1122,20.2549],[73.0499,20.3303],[72.8967,20.2215],[72.9472,20.1274],[72.709,20.078],[72.8812,20.5632],[72.8937,20.6728],[72.8789,20.8285],[72.8405,20.9525],[72.8139,21.1172],[72.7516,21.1291],[72.6924,21.1776],[72.6238,21.372],[72.7348,21.4708],[72.6133,21.4618],[72.8105,21.6199],[73.0225,21.6996],[73.1125,21.7504],[72.9791,21.7047],[72.8397,21.6873],[72.5431,21.6966],[72.5925,21.8776],[72.644,21.938],[72.7002,21.9719],[72.6175,21.9617],[72.5223,21.9762],[72.553,22.16],[72.6279,22.1996],[72.8092,22.2333],[72.5901,22.2781],[72.456,22.2481],[72.3326,22.2702],[72.1828,22.2697],[72.2426,22.2452],[72.3064,22.1892],[72.2744,22.0897],[72.2443,22.0276],[72.1617,21.9848],[72.0944,21.92],[72.0756,21.863],[72.0372,21.823],[72.1709,21.7743],[72.2104,21.7282],[72.2566,21.6612],[72.254,21.531],[72.0766,21.2241],[72.0152,21.1557],[71.5711,20.9706],[71.3965,20.8698],[71.0246,20.7389],[70.8797,20.7145],[70.7193,20.7404],[70.4851,20.8402],[70.1273,21.0947],[70.0344,21.1788],[69.7484,21.5057],[69.542,21.6786],[69.3854,21.8396],[69.1917,21.9915],[69.0088,22.1968],[68.9699,22.2903],[68.9835,22.3854],[69.0517,22.4373],[69.1313,22.4163],[69.1942,22.3361],[69.2766,22.2855],[69.5492,22.4084],[69.6552,22.4035],[69.7275,22.4652],[69.819,22.4518],[70.0059,22.5477],[70.1772,22.5728],[70.4404,22.9703],[70.5135,23.0025],[70.4893,23.0895],[70.4346,23.0771],[70.3395,22.9397],[70.2512,22.9709],[70.1183,22.947],[69.8498,22.8564],[69.7396,22.7752],[69.6646,22.7591],[69.2359,22.8485],[68.8171,23.0537],[68.6407,23.1899],[68.4175,23.5715],[68.4538,23.6295],[68.7768,23.8521],[68.4969,23.748],[68.4249,23.7056],[68.3434,23.6168],[68.235,23.597],[68.165,23.8573],[68.2825,23.928],[68.3813,23.9509],[68.4887,23.9672],[68.7241,23.9647],[68.7281,24.2656],[68.7589,24.3072],[68.8,24.3091],[68.8283,24.264],[68.8634,24.2665],[68.9008,24.2924],[68.9846,24.2731],[69.0515,24.2863],[69.1195,24.2686],[69.5592,24.2731],[69.7162,24.1726],[69.9337,24.1714],[70.0211,24.1916],[70.0982,24.2875],[70.2891,24.3563],[70.5468,24.4183],[70.565,24.3858],[70.5559,24.3311],[70.5793,24.279],[70.6595,24.2461],[70.7673,24.2454],[70.8051,24.262],[70.8862,24.3438],[70.9282,24.3623],[70.9828,24.361],[71.044,24.4001],[71.0453,24.43],[71.0062,24.4443],[70.9732,24.4874],[70.9698,24.5719],[70.9763,24.6188],[71.0479,24.6877]]]]}},{"type":"Feature","id":"Arunachal Pradesh","properties":{"state":"Arunachal Pradesh"},"geometry":{"type":"MultiPolygon","coordinates":[[[[91.6319,27.76],[91.9777,27.7303],[92.1013,27.8076],[92.2505,27.8415],[92.3411,27.8208],[92.4149,27.8246],[92.5467,27.8792],[92.6643,27.9489],[92.6878,27.989],[92.6874,28.0257],[92.6435,28.0615],[92.6526,28.0934],[92.7019,28.1471],[92.8819,28.2281],[93.035,28.3277],[93.1192,28.4023],[93.2065,28.5908],[93.252,28.6295],[93.6649,28.6902],[93.7608,28.7298],[93.9023,28.8032],[93.9736,28.8608],[94.0133,28.9075],[94.0177,28.9595],[94.1115,28.9759],[94.2933,29.1446],[94.4681,29.2162],[94.623,29.3124],[94.677,29.297],[94.7334,29.2516],[94.7694,29.1759],[94.9989,29.1492],[95.2791,29.0495],[95.3892,29.0374],[95.5169,29.1512],[95.5158,29.2063],[95.7104,29.3138],[96.0353,29.4471],[96.1285,29.3814],[96.1948,29.2725],[96.235,29.2458],[96.3372,29.261],[96.3558,29.2491],[96.3397,29.2098],[96.1223,29.0821],[96.1372,28.9226],[96.1622,28.9097],[96.3469,29.0274],[96.4357,29.0507],[96.4671,29.0223],[96.4771,28.9593],[96.5809,28.7637],[96.3956,28.6065],[96.3274,28.5254],[96.3261,28.4685],[96.2789,28.4282],[96.2815,28.4121],[96.3891,28.3679],[96.4277,28.406],[96.6027,28.4599],[96.6528,28.4497],[96.7758,28.3671],[96.9809,28.3377],[97.0753,28.369],[97.1452,28.3403],[97.3225,28.218],[97.3028,28.086],[97.3392,28.0309],[97.3435,27.9823],[97.3351,27.9377],[97.3062,27.9071],[97.2261,27.8901],[96.9628,27.6983],[96.8997,27.6439],[96.8769,27.5867],[96.9019,27.4396],[97.1038,27.1633],[97.1021,27.1154],[97.0381,27.102],[96.9534,27.1333],[96.8803,27.1778],[96.7978,27.2962],[96.7316,27.3315],[96.6658,27.3393],[96.1908,27.2613],[96.0615,27.2171],[95.9053,27.0466],[95.7384,26.9504],[95.4638,26.756],[95.2464,26.6548],[95.2353,26.7906],[95.2022,26.8667],[95.2254,26.9742],[95.1764,27.0332],[95.2612,27.0489],[95.4238,27.1413],[95.4934,27.25],[95.5459,27.2739],[95.6438,27.2303],[95.7996,27.2859],[95.9037,27.2761],[96.0072,27.3651],[95.9783,27.4497],[95.8796,27.4626],[95.8868,27.557],[95.8043,27.6194],[95.7759,27.7173],[95.9007,27.8654],[95.9641,27.9933],[95.7168,27.9902],[95.5436,27.9021],[95.4084,27.8708],[95.3132,27.8958],[94.4746,27.5939],[94.3529,27.5931],[94.2431,27.648],[94.2431,27.526],[93.9825,27.3277],[93.8466,27.1989],[93.8266,27.096],[93.6947,27.0059],[93.4607,26.9472],[93.375,26.9888],[93.0203,26.953],[92.8148,27.0508],[92.6988,27.0659],[92.6262,27.0181],[92.2103,26.9123],[92.0728,26.9209],[92.0681,26.9752],[91.9923,27.0999],[92.0312,27.2143],[92.0835,27.2906],[92.045,27.3647],[91.9908,27.4502],[91.7431,27.4425],[91.6581,27.4936],[91.5948,27.5576],[91.5794,27.6114],[91.6319,27.76]]]]}},{"type":"Feature","id":"Mizoram","properties":{"state":"Mizoram"},"geometry":{"type":"MultiPolygon","coordinates":[[[[93.3121,24.0325],[93.3725,23.7742],[93.415,23.6821],[93.3913,23.3392],[93.3494,23.0849],[93.308,23.0304],[93.2535,23.0155],[93.2039,23.037],[93.1642,23.032],[93.1509,22.9973],[93.1625,22.908],[93.0787,22.7182],[93.105,22.5471],[93.162,22.3602],[93.1511,22.2306],[93.1215,22.2052],[93.0706,22.2094],[93.043,22.184],[92.9645,22.0038],[92.9095,21.9889],[92.8543,22.0101],[92.7714,22.1048],[92.721,22.1324],[92.6889,22.131],[92.6303,22.0113],[92.5749,21.9781],[92.4914,22.6854],[92.3932,22.897],[92.3616,22.929],[92.3413,23.0698],[92.3342,23.3238],[92.2461,23.6836],[92.2707,23.8291],[92.3186,23.8505],[92.3254,24.1883],[92.2985,24.2377],[92.4162,24.2395],[92.4895,24.1325],[92.6245,24.2385],[92.6309,24.2951],[92.7012,24.3619],[92.7463,24.4711],[92.8287,24.3773],[93.0184,24.3991],[92.9955,24.0953],[93.1057,24.0449],[93.2486,24.057],[93.3121,24.0325]]]]}},{"type":"Feature","id":"Tripura","properties":{"state":"Tripura"},"geometry":{"type":"MultiPolygon","coordinates":[[[[92.2461,23.6836],[92.1871,23.6755],[92.1523,23.7219],[92.0441,23.6778],[91.9296,23.686],[91.9379,23.5047],[91.9192,23.471],[91.7901,23.361],[91.7542,23.2873],[91.7739,23.1061],[91.751,23.0535],[91.6949,23.0048],[91.6196,22.9797],[91.5536,22.9916],[91.5112,23.0337],[91.4363,23.1999],[91.3995,23.2139],[91.3706,23.198],[91.3687,23.0746],[91.3388,23.077],[91.3152,23.1044],[91.2538,23.3736],[91.1655,23.581],[91.1605,23.6606],[91.232,23.9205],[91.3364,24.0188],[91.3671,24.0935],[91.5264,24.0908],[91.5714,24.1066],[91.6687,24.1901],[91.7265,24.2051],[91.7725,24.2107],[91.8462,24.1753],[91.8769,24.1953],[91.9516,24.3568],[92.0851,24.3862],[92.1391,24.5453],[92.2217,24.5004],[92.2578,24.396],[92.2202,24.2643],[92.2985,24.2377],[92.3254,24.1883],[92.3186,23.8505],[92.2707,23.8291],[92.2461,23.6836]]]]}},{"type":"Feature","id":"Maharashtra","properties":{"state":"Maharashtra"},"geometry":{"type":"MultiPolygon","coordinates":[[[[74.1035,15.6446],[73.9917,15.6111],[73.942,15.6344],[73.9084,15.7212],[73.8076,15.7749],[73.6789,15.7112],[73.6077,15.8711],[73.4761,16.0542],[73.4537,16.1521],[73.3376,16.4599],[73.2392,17.1985],[73.149,17.5274],[73.1561,17.6219],[73.0472,17.9067],[72.9939,18.0977],[72.9172,18.5761],[72.8755,18.6428],[72.8709,18.6831],[72.8987,18.779],[72.9769,18.9272],[73.0056,19.0211],[72.9721,19.1533],[72.9007,19.0145],[72.8347,18.9756],[72.803,19.0793],[72.7945,19.2521],[72.8116,19.2989],[72.9872,19.2774],[72.7879,19.363],[72.7564,19.4505],[72.7994,19.5198],[72.7266,19.5783],[72.6975,19.7571],[72.6678,19.831],[72.709,20.078],[72.9472,20.1274],[72.9972,20.0398],[73.1609,20.0475],[73.1663,20.1149],[73.2433,20.1386],[73.2718,20.1934],[73.3638,20.1783],[73.3941,20.2704],[73.3607,20.3694],[73.4587,20.538],[73.4042,20.6699],[73.4758,20.6787],[73.6998,20.5624],[73.7923,20.6062],[73.811,20.6769],[73.909,20.7757],[73.9029,20.8839],[73.8683,20.9748],[73.6952,21.1226],[73.7774,21.2166],[73.8001,21.2809],[73.9186,21.2916],[73.9602,21.3944],[74.0535,21.4657],[74.1087,21.4516],[74.2915,21.5139],[74.1916,21.5455],[73.9959,21.5553],[73.8208,21.5083],[73.7516,21.611],[73.8286,21.6509],[73.8094,21.8365],[73.9176,21.8669],[74.061,21.9403],[74.1288,21.9518],[74.2049,21.9251],[74.2844,21.9449],[74.4077,22.023],[74.4856,21.946],[74.5125,21.7269],[74.7081,21.6112],[74.8941,21.612],[75.048,21.5541],[75.1299,21.4377],[75.3119,21.3815],[75.5347,21.3718],[75.814,21.3834],[75.8778,21.3998],[76.0829,21.3681],[76.1429,21.1931],[76.1086,21.1531],[76.1868,21.0858],[76.2866,21.0748],[76.4366,21.1078],[76.4983,21.1804],[76.6141,21.2025],[76.654,21.2513],[76.6334,21.341],[76.7295,21.413],[76.7855,21.5017],[76.7937,21.577],[76.9174,21.6181],[77.0288,21.6936],[77.1155,21.724],[77.219,21.7008],[77.333,21.7745],[77.4607,21.77],[77.5518,21.6968],[77.5552,21.5425],[77.4568,21.5485],[77.4331,21.4988],[77.4818,21.4239],[77.578,21.3845],[77.7126,21.3803],[77.7875,21.423],[77.8715,21.3981],[78.0292,21.4377],[78.1927,21.5511],[78.4133,21.6063],[78.4279,21.5085],[78.5137,21.5266],[78.696,21.4748],[78.9042,21.5093],[78.9219,21.5723],[79.2158,21.6546],[79.2401,21.7128],[79.4131,21.6898],[79.5331,21.6193],[79.5516,21.55],[79.6505,21.5816],[79.7984,21.5878],[79.8403,21.5343],[80.0053,21.5483],[80.1867,21.6395],[80.3102,21.5802],[80.4176,21.4468],[80.6256,21.3265],[80.679,21.3512],[80.6256,21.2427],[80.4845,21.1677],[80.4353,20.9992],[80.4813,20.932],[80.5521,20.9193],[80.573,20.6976],[80.503,20.6333],[80.6224,20.6009],[80.6224,20.3259],[80.4244,20.2341],[80.4263,20.1462],[80.5306,20.1349],[80.5572,20.0483],[80.5311,19.9207],[80.4251,19.8928],[80.5378,19.8109],[80.5656,19.7398],[80.6757,19.6766],[80.7129,19.5926],[80.831,19.5471],[80.8939,19.4844],[80.8322,19.3454],[80.7167,19.2627],[80.6174,19.3186],[80.576,19.392],[80.3971,19.2342],[80.3666,19.1174],[80.2718,18.9794],[80.3442,18.8507],[80.2748,18.7769],[80.2704,18.7137],[80.0905,18.6975],[80.0019,18.7856],[79.9603,18.8671],[79.9335,19.0531],[79.8618,19.0811],[79.9438,19.1692],[79.9306,19.2119],[79.9655,19.4019],[79.9311,19.4825],[79.8649,19.509],[79.7958,19.5941],[79.7354,19.6034],[79.5389,19.5338],[79.4204,19.5364],[79.266,19.5896],[79.1977,19.4619],[79.0589,19.5471],[79.0243,19.5415],[78.8725,19.6501],[78.8475,19.7245],[78.78,19.7767],[78.7117,19.7743],[78.5337,19.8247],[78.4777,19.7991],[78.3833,19.8662],[78.3218,19.8633],[78.3836,19.6845],[78.3334,19.6433],[78.3026,19.4828],[78.2401,19.4602],[78.1744,19.3747],[78.1679,19.2641],[78.0639,19.2641],[77.9924,19.3227],[77.92,19.3317],[77.855,19.2284],[77.8336,19.1214],[77.752,19.0459],[77.9121,18.8354],[77.8393,18.8096],[77.7811,18.7038],[77.7034,18.6691],[77.6799,18.57],[77.5923,18.5481],[77.5026,18.3816],[77.5512,18.3079],[77.4615,18.2819],[77.3466,18.3515],[77.3019,18.4603],[77.2327,18.4107],[77.2311,18.3338],[77.1179,18.2538],[77.0877,18.1971],[76.9495,18.18],[76.8929,18.1443],[76.8851,17.9745],[76.8391,17.8842],[76.7409,17.8984],[76.7557,17.8258],[76.676,17.7069],[76.5927,17.7706],[76.513,17.7728],[76.3906,17.6368],[76.3222,17.6177],[76.3438,17.3519],[76.2104,17.3889],[76.0947,17.3778],[75.9365,17.3259],[75.87,17.4161],[75.7839,17.3748],[75.6131,17.4716],[75.5528,17.3659],[75.6221,17.2209],[75.6051,17.1581],[75.6468,17.0914],[75.6167,16.9747],[75.5538,17.0149],[75.4534,16.9641],[75.3708,16.9845],[75.256,16.9592],[75.2426,16.9021],[75.1665,16.8679],[75.0434,16.9528],[74.96,16.9511],[74.9223,16.8893],[74.8446,16.852],[74.8667,16.7762],[74.6849,16.7084],[74.6658,16.6062],[74.5574,16.5517],[74.5246,16.6238],[74.43,16.6443],[74.3532,16.5435],[74.2924,16.5284],[74.3662,16.2929],[74.4519,16.2539],[74.4696,16.1098],[74.416,16.0964],[74.4288,15.9938],[74.3545,15.8726],[74.3311,15.7619],[74.2235,15.7261],[74.1861,15.7657],[74.1035,15.6446]]]]}}]}